{
    "type": "FeatureCollection",
    "features": [
        {
            "type": "Feature",
            "properties": {
                "name": "Jalur Selatan ARGO WILIS",
                "type": "track"
            },
            "geometry": {
                "type": "LineString",
                "coordinates": [
                    [
                        107.6036,
                        -6.9125
                    ],
                    [
                        107.6465,
                        -6.9249
                    ],
                    [
                        107.8329,
                        -6.9835
                    ],
                    [
                        108.0069,
                        -7.0935
                    ],
                    [
                        108.2207,
                        -7.3278
                    ],
                    [
                        110.3633,
                        -7.7891
                    ],
                    [
                        110.8213,
                        -7.5579
                    ],
                    [
                        111.5238,
                        -7.6188
                    ],
                    [
                        112.7517,
                        -7.2647
                    ]
                ]
            }
        },
        {
            "type": "Feature",
            "properties": {
                "name": "BANDUNG",
                "type": "station"
            },
            "geometry": {
                "type": "Point",
                "coordinates": [
                    107.6036,
                    -6.9125
                ]
            }
        },
        {
            "type": "Feature",
            "properties": {
                "name": "TASIKMALAYA",
                "type": "station"
            },
            "geometry": {
                "type": "Point",
                "coordinates": [
                    108.2207,
                    -7.3278
                ]
            }
        },
        {
            "type": "Feature",
            "properties": {
                "name": "YOGYAKARTA",
                "type": "station"
            },
            "geometry": {
                "type": "Point",
                "coordinates": [
                    110.3633,
                    -7.7891
                ]
            }
        },
        {
            "type": "Feature",
            "properties": {
                "name": "SOLO BALAPAN",
                "type": "station"
            },
            "geometry": {
                "type": "Point",
                "coordinates": [
                    110.8213,
                    -7.5579
                ]
            }
        },
        {
            "type": "Feature",
            "properties": {
                "name": "MADIUN",
                "type": "station"
            },
            "geometry": {
                "type": "Point",
                "coordinates": [
                    111.5238,
                    -7.6188
                ]
            }
        },
        {
            "type": "Feature",
            "properties": {
                "name": "SURABAYA GUBENG",
                "type": "station"
            },
            "geometry": {
                "type": "Point",
                "coordinates": [
                    112.7517,
                    -7.2647
                ]
            }
        }
    ]
}