{
  "type": "FeatureCollection",
  "features": [
    {
      "type": "Feature",
      "properties": {
        "name": "Argo Parahyangan Route",
        "ref": "Argo Parahyangan",
        "from": "Gambir",
        "to": "Bandung"
      },
      "geometry": {
        "type": "LineString",
        "coordinates": [
          [
            106.830934,
            -6.177818
          ],
          [
            106.833554,
            -6.188264
          ],
          [
            106.853549,
            -6.214402
          ],
          [
            106.855249,
            -6.214475
          ],
          [
            106.862368,
            -6.211681
          ],
          [
            106.868106,
            -6.214969
          ],
          [
            106.88715,
            -6.214054
          ],
          [
            106.891622,
            -6.213069
          ],
          [
            106.904869,
            -6.213326
          ],
          [
            106.974864,
            -6.221742
          ],
          [
            107.010566,
            -6.243917
          ],
          [
            107.032901,
            -6.252489
          ],
          [
            107.070974,
            -6.262607
          ],
          [
            107.076766,
            -6.262898
          ],
          [
            107.139615,
            -6.253191
          ],
          [
            107.150553,
            -6.257333
          ],
          [
            107.174721,
            -6.269295
          ],
          [
            107.183221,
            -6.271532
          ],
          [
            107.256453,
            -6.269283
          ],
          [
            107.264271,
            -6.270664
          ],
          [
            107.270688,
            -6.276454
          ],
          [
            107.277863,
            -6.280339
          ],
          [
            107.280422,
            -6.284028
          ],
          [
            107.286364,
            -6.289997
          ],
          [
            107.292211,
            -6.298771
          ],
          [
            107.325174,
            -6.324802
          ],
          [
            107.34253,
            -6.347661
          ],
          [
            107.366518,
            -6.365307
          ],
          [
            107.423777,
            -6.390314
          ],
          [
            107.437852,
            -6.394507
          ],
          [
            107.443838,
            -6.399432
          ],
          [
            107.462355,
            -6.408341
          ],
          [
            107.4641,
            -6.41403
          ],
          [
            107.470091,
            -6.422705
          ],
          [
            107.475068,
            -6.433715
          ],
          [
            107.47502,
            -6.435833
          ],
          [
            107.473277,
            -6.440333
          ],
          [
            107.473175,
            -6.444412
          ],
          [
            107.476685,
            -6.450507
          ],
          [
            107.478093,
            -6.457884
          ],
          [
            107.479899,
            -6.461355
          ],
          [
            107.480304,
            -6.464363
          ],
          [
            107.47845,
            -6.471061
          ],
          [
            107.478871,
            -6.4754
          ],
          [
            107.477137,
            -6.482666
          ],
          [
            107.475302,
            -6.488729
          ],
          [
            107.466162,
            -6.502114
          ],
          [
            107.464009,
            -6.503188
          ],
          [
            107.457414,
            -6.503319
          ],
          [
            107.455131,
            -6.505578
          ],
          [
            107.455011,
            -6.507722
          ],
          [
            107.458053,
            -6.515482
          ],
          [
            107.458838,
            -6.520889
          ],
          [
            107.457602,
            -6.522851
          ],
          [
            107.453781,
            -6.524973
          ],
          [
            107.451738,
            -6.52877
          ],
          [
            107.451074,
            -6.530778
          ],
          [
            107.451579,
            -6.535263
          ],
          [
            107.447018,
            -6.54331
          ],
          [
            107.445278,
            -6.548162
          ],
          [
            107.445384,
            -6.550577
          ],
          [
            107.45089,
            -6.562751
          ],
          [
            107.448101,
            -6.568779
          ],
          [
            107.4451,
            -6.572394
          ],
          [
            107.445349,
            -6.575946
          ],
          [
            107.443826,
            -6.581627
          ],
          [
            107.442171,
            -6.582643
          ],
          [
            107.440421,
            -6.581534
          ],
          [
            107.441697,
            -6.577901
          ],
          [
            107.439056,
            -6.571626
          ],
          [
            107.436836,
            -6.571974
          ],
          [
            107.435972,
            -6.575281
          ],
          [
            107.434179,
            -6.576089
          ],
          [
            107.427619,
            -6.570909
          ],
          [
            107.425402,
            -6.570412
          ],
          [
            107.423532,
            -6.568897
          ],
          [
            107.421506,
            -6.569359
          ],
          [
            107.420973,
            -6.572916
          ],
          [
            107.425919,
            -6.576002
          ],
          [
            107.426391,
            -6.578009
          ],
          [
            107.423721,
            -6.580891
          ],
          [
            107.420895,
            -6.582122
          ],
          [
            107.42014,
            -6.585882
          ],
          [
            107.418633,
            -6.587873
          ],
          [
            107.418639,
            -6.591139
          ],
          [
            107.41457,
            -6.593887
          ],
          [
            107.409721,
            -6.5999
          ],
          [
            107.40909,
            -6.60905
          ],
          [
            107.405982,
            -6.616262
          ],
          [
            107.398083,
            -6.627982
          ],
          [
            107.391581,
            -6.63267
          ],
          [
            107.390717,
            -6.636579
          ],
          [
            107.391142,
            -6.643784
          ],
          [
            107.389457,
            -6.647148
          ],
          [
            107.392688,
            -6.650766
          ],
          [
            107.394001,
            -6.656862
          ],
          [
            107.397051,
            -6.658837
          ],
          [
            107.395442,
            -6.66307
          ],
          [
            107.397042,
            -6.665723
          ],
          [
            107.397048,
            -6.66938
          ],
          [
            107.398049,
            -6.671624
          ],
          [
            107.397223,
            -6.673323
          ],
          [
            107.394111,
            -6.674277
          ],
          [
            107.393504,
            -6.67607
          ],
          [
            107.399182,
            -6.681573
          ],
          [
            107.399674,
            -6.683434
          ],
          [
            107.396248,
            -6.687955
          ],
          [
            107.398013,
            -6.69223
          ],
          [
            107.397563,
            -6.69649
          ],
          [
            107.389878,
            -6.71487
          ],
          [
            107.388303,
            -6.714376
          ],
          [
            107.385888,
            -6.715263
          ],
          [
            107.384306,
            -6.713978
          ],
          [
            107.384986,
            -6.712025
          ],
          [
            107.388656,
            -6.710997
          ],
          [
            107.388142,
            -6.70711
          ],
          [
            107.389,
            -6.705329
          ],
          [
            107.394253,
            -6.704005
          ],
          [
            107.398892,
            -6.70108
          ],
          [
            107.399067,
            -6.69949
          ],
          [
            107.397563,
            -6.69649
          ],
          [
            107.391762,
            -6.716218
          ],
          [
            107.389878,
            -6.71487
          ],
          [
            107.392511,
            -6.716932
          ],
          [
            107.392666,
            -6.718695
          ],
          [
            107.389724,
            -6.721229
          ],
          [
            107.389338,
            -6.722531
          ],
          [
            107.390713,
            -6.725249
          ],
          [
            107.395107,
            -6.727739
          ],
          [
            107.39546,
            -6.733815
          ],
          [
            107.396153,
            -6.735124
          ],
          [
            107.400761,
            -6.737129
          ],
          [
            107.402124,
            -6.741137
          ],
          [
            107.404908,
            -6.742345
          ],
          [
            107.407761,
            -6.742534
          ],
          [
            107.40892,
            -6.743607
          ],
          [
            107.408804,
            -6.745167
          ],
          [
            107.406457,
            -6.747546
          ],
          [
            107.408645,
            -6.751363
          ],
          [
            107.407926,
            -6.755735
          ],
          [
            107.405753,
            -6.758241
          ],
          [
            107.405962,
            -6.759983
          ],
          [
            107.407397,
            -6.760823
          ],
          [
            107.411485,
            -6.760665
          ],
          [
            107.413848,
            -6.759985
          ],
          [
            107.415608,
            -6.757521
          ],
          [
            107.417959,
            -6.757864
          ],
          [
            107.419499,
            -6.760754
          ],
          [
            107.42216,
            -6.763183
          ],
          [
            107.420281,
            -6.770462
          ],
          [
            107.426062,
            -6.778091
          ],
          [
            107.430922,
            -6.778395
          ],
          [
            107.433908,
            -6.782563
          ],
          [
            107.435326,
            -6.782194
          ],
          [
            107.436938,
            -6.780063
          ],
          [
            107.440109,
            -6.779144
          ],
          [
            107.445984,
            -6.782106
          ],
          [
            107.446723,
            -6.783532
          ],
          [
            107.445524,
            -6.793161
          ],
          [
            107.447439,
            -6.795681
          ],
          [
            107.449885,
            -6.795323
          ],
          [
            107.450445,
            -6.792324
          ],
          [
            107.451543,
            -6.791091
          ],
          [
            107.456033,
            -6.790296
          ],
          [
            107.457022,
            -6.792309
          ],
          [
            107.454851,
            -6.795278
          ],
          [
            107.455982,
            -6.800157
          ],
          [
            107.460842,
            -6.802624
          ],
          [
            107.468063,
            -6.80525
          ],
          [
            107.470934,
            -6.805457
          ],
          [
            107.475017,
            -6.807563
          ],
          [
            107.475647,
            -6.810791
          ],
          [
            107.478172,
            -6.812245
          ],
          [
            107.481166,
            -6.817392
          ],
          [
            107.484733,
            -6.817888
          ],
          [
            107.486254,
            -6.821646
          ],
          [
            107.4908,
            -6.823211
          ],
          [
            107.490387,
            -6.825525
          ],
          [
            107.486601,
            -6.826667
          ],
          [
            107.485658,
            -6.827896
          ],
          [
            107.488375,
            -6.835502
          ],
          [
            107.491468,
            -6.837352
          ],
          [
            107.504578,
            -6.849178
          ],
          [
            107.509541,
            -6.85673
          ],
          [
            107.513315,
            -6.860721
          ],
          [
            107.518393,
            -6.870852
          ],
          [
            107.524489,
            -6.874309
          ],
          [
            107.539622,
            -6.889233
          ],
          [
            107.551652,
            -6.891737
          ],
          [
            107.559166,
            -6.894912
          ],
          [
            107.587457,
            -6.913279
          ],
          [
            107.60313,
            -6.914226
          ]
        ]
      }
    },
    {
      "type": "Feature",
      "properties": {
        "name": "Cimahi",
        "ref": "B12;C12",
        "isCheckpoint": true,
        "role": "stop"
      },
      "geometry": {
        "type": "Point",
        "coordinates": [
          107.536692,
          -6.886529
        ]
      }
    },
    {
      "type": "Feature",
      "properties": {
        "name": "Gambir",
        "isCheckpoint": true,
        "role": "stop_entry_only"
      },
      "geometry": {
        "type": "Point",
        "coordinates": [
          106.830934,
          -6.177818
        ]
      }
    },
    {
      "type": "Feature",
      "properties": {
        "name": "Bekasi",
        "ref": "BKS",
        "isCheckpoint": true,
        "role": "stop"
      },
      "geometry": {
        "type": "Point",
        "coordinates": [
          106.999773,
          -6.236706
        ]
      }
    },
    {
      "type": "Feature",
      "properties": {
        "name": "Bandung",
        "ref": "BD",
        "isCheckpoint": true,
        "role": "stop_exit_only"
      },
      "geometry": {
        "type": "Point",
        "coordinates": [
          107.60313,
          -6.914226
        ]
      }
    }
  ]
}