{
  "type": "FeatureCollection",
  "features": [
    {
      "type": "Feature",
      "properties": {
        "name": "Argo Parahyangan Route",
        "ref": "Argo Parahyangan",
        "from": "Gambir",
        "to": "Bandung"
      },
      "geometry": {
        "type": "LineString",
        "coordinates": [
          [
            106.830934,
            -6.177818
          ],
          [
            106.833554,
            -6.188264
          ],
          [
            106.853549,
            -6.214402
          ],
          [
            106.855249,
            -6.214475
          ],
          [
            106.862368,
            -6.211681
          ],
          [
            106.868106,
            -6.214969
          ],
          [
            106.88715,
            -6.214054
          ],
          [
            106.891622,
            -6.213069
          ],
          [
            106.904869,
            -6.213326
          ],
          [
            106.974864,
            -6.221742
          ],
          [
            107.010566,
            -6.243917
          ],
          [
            107.032901,
            -6.252489
          ],
          [
            107.070974,
            -6.262607
          ],
          [
            107.076766,
            -6.262898
          ],
          [
            107.139615,
            -6.253191
          ],
          [
            107.150553,
            -6.257333
          ],
          [
            107.174721,
            -6.269295
          ],
          [
            107.183221,
            -6.271532
          ],
          [
            107.256453,
            -6.269283
          ],
          [
            107.264271,
            -6.270664
          ],
          [
            107.270688,
            -6.276454
          ],
          [
            107.277863,
            -6.280339
          ],
          [
            107.280422,
            -6.284028
          ],
          [
            107.286364,
            -6.289997
          ],
          [
            107.292211,
            -6.298771
          ],
          [
            107.325174,
            -6.324802
          ],
          [
            107.34253,
            -6.347661
          ],
          [
            107.366518,
            -6.365307
          ],
          [
            107.423777,
            -6.390314
          ],
          [
            107.437852,
            -6.394507
          ],
          [
            107.443838,
            -6.399432
          ],
          [
            107.462355,
            -6.408341
          ],
          [
            107.4641,
            -6.41403
          ],
          [
            107.470091,
            -6.422705
          ],
          [
            107.475068,
            -6.433715
          ],
          [
            107.47502,
            -6.435833
          ],
          [
            107.473277,
            -6.440333
          ],
          [
            107.473175,
            -6.444412
          ],
          [
            107.476685,
            -6.450507
          ],
          [
            107.478093,
            -6.457884
          ],
          [
            107.479899,
            -6.461355
          ],
          [
            107.480304,
            -6.464363
          ],
          [
            107.47845,
            -6.471061
          ],
          [
            107.478871,
            -6.4754
          ],
          [
            107.477137,
            -6.482666
          ],
          [
            107.475302,
            -6.488729
          ],
          [
            107.466162,
            -6.502114
          ],
          [
            107.464009,
            -6.503188
          ],
          [
            107.457414,
            -6.503319
          ],
          [
            107.455131,
            -6.505578
          ],
          [
            107.455011,
            -6.507722
          ],
          [
            107.458053,
            -6.515482
          ],
          [
            107.458838,
            -6.520889
          ],
          [
            107.457602,
            -6.522851
          ],
          [
            107.453781,
            -6.524973
          ],
          [
            107.451738,
            -6.52877
          ],
          [
            107.451074,
            -6.530778
          ],
          [
            107.451579,
            -6.535263
          ],
          [
            107.447018,
            -6.54331
          ],
          [
            107.445278,
            -6.548162
          ],
          [
            107.445384,
            -6.550577
          ],
          [
            107.45089,
            -6.562751
          ],
          [
            107.448101,
            -6.568779
          ],
          [
            107.4451,
            -6.572394
          ],
          [
            107.445349,
            -6.575946
          ],
          [
            107.443826,
            -6.581627
          ],
          [
            107.442171,
            -6.582643
          ],
          [
            107.440421,
            -6.581534
          ],
          [
            107.441697,
            -6.577901
          ],
          [
            107.439056,
            -6.571626
          ],
          [
            107.436836,
            -6.571974
          ],
          [
            107.435972,
            -6.575281
          ],
          [
            107.434179,
            -6.576089
          ],
          [
            107.427619,
            -6.570909
          ],
          [
            107.425402,
            -6.570412
          ],
          [
            107.423532,
            -6.568897
          ],
          [
            107.421506,
            -6.569359
          ],
          [
            107.420973,
            -6.572916
          ],
          [
            107.425919,
            -6.576002
          ],
          [
            107.426391,
            -6.578009
          ],
          [
            107.423721,
            -6.580891
          ],
          [
            107.420895,
            -6.582122
          ],
          [
            107.42014,
            -6.585882
          ],
          [
            107.418633,
            -6.587873
          ],
          [
            107.418639,
            -6.591139
          ],
          [
            107.41457,
            -6.593887
          ],
          [
            107.409721,
            -6.5999
          ],
          [
            107.40909,
            -6.60905
          ],
          [
            107.405982,
            -6.616262
          ],
          [
            107.398083,
            -6.627982
          ],
          [
            107.391581,
            -6.63267
          ],
          [
            107.390717,
            -6.636579
          ],
          [
            107.391142,
            -6.643784
          ],
          [
            107.389457,
            -6.647148
          ],
          [
            107.392688,
            -6.650766
          ],
          [
            107.394001,
            -6.656862
          ],
          [
            107.397051,
            -6.658837
          ],
          [
            107.395442,
            -6.66307
          ],
          [
            107.397042,
            -6.665723
          ],
          [
            107.397048,
            -6.66938
          ],
          [
            107.398049,
            -6.671624
          ],
          [
            107.397223,
            -6.673323
          ],
          [
            107.394111,
            -6.674277
          ],
          [
            107.393504,
            -6.67607
          ],
          [
            107.399182,
            -6.681573
          ],
          [
            107.399674,
            -6.683434
          ],
          [
            107.396248,
            -6.687955
          ],
          [
            107.398013,
            -6.69223
          ],
          [
            107.397563,
            -6.69649
          ],
          [
            107.389878,
            -6.71487
          ],
          [
            107.388303,
            -6.714376
          ],
          [
            107.385888,
            -6.715263
          ],
          [
            107.384306,
            -6.713978
          ],
          [
            107.384986,
            -6.712025
          ],
          [
            107.388656,
            -6.710997
          ],
          [
            107.388142,
            -6.70711
          ],
          [
            107.389,
            -6.705329
          ],
          [
            107.394253,
            -6.704005
          ],
          [
            107.398892,
            -6.70108
          ],
          [
            107.399067,
            -6.69949
          ],
          [
            107.397563,
            -6.69649
          ],
          [
            107.391762,
            -6.716218
          ],
          [
            107.389878,
            -6.71487
          ],
          [
            107.392511,
            -6.716932
          ],
          [
            107.392666,
            -6.718695
          ],
          [
            107.389724,
            -6.721229
          ],
          [
            107.389338,
            -6.722531
          ],
          [
            107.390713,
            -6.725249
          ],
          [
            107.395107,
            -6.727739
          ],
          [
            107.39546,
            -6.733815
          ],
          [
            107.396153,
            -6.735124
          ],
          [
            107.400761,
            -6.737129
          ],
          [
            107.402124,
            -6.741137
          ],
          [
            107.404908,
            -6.742345
          ],
          [
            107.407761,
            -6.742534
          ],
          [
            107.40892,
            -6.743607
          ],
          [
            107.408804,
            -6.745167
          ],
          [
            107.406457,
            -6.747546
          ],
          [
            107.408645,
            -6.751363
          ],
          [
            107.407926,
            -6.755735
          ],
          [
            107.405753,
            -6.758241
          ],
          [
            107.405962,
            -6.759983
          ],
          [
            107.407397,
            -6.760823
          ],
          [
            107.411485,
            -6.760665
          ],
          [
            107.413848,
            -6.759985
          ],
          [
            107.415608,
            -6.757521
          ],
          [
            107.417959,
            -6.757864
          ],
          [
            107.419499,
            -6.760754
          ],
          [
            107.42216,
            -6.763183
          ],
          [
            107.420281,
            -6.770462
          ],
          [
            107.426062,
            -6.778091
          ],
          [
            107.430922,
            -6.778395
          ],
          [
            107.433908,
            -6.782563
          ],
          [
            107.435326,
            -6.782194
          ],
          [
            107.436938,
            -6.780063
          ],
          [
            107.440109,
            -6.779144
          ],
          [
            107.445984,
            -6.782106
          ],
          [
            107.446723,
            -6.783532
          ],
          [
            107.445524,
            -6.793161
          ],
          [
            107.447439,
            -6.795681
          ],
          [
            107.449885,
            -6.795323
          ],
          [
            107.450445,
            -6.792324
          ],
          [
            107.451543,
            -6.791091
          ],
          [
            107.456033,
            -6.790296
          ],
          [
            107.457022,
            -6.792309
          ],
          [
            107.454851,
            -6.795278
          ],
          [
            107.455982,
            -6.800157
          ],
          [
            107.460842,
            -6.802624
          ],
          [
            107.468063,
            -6.80525
          ],
          [
            107.470934,
            -6.805457
          ],
          [
            107.475017,
            -6.807563
          ],
          [
            107.475647,
            -6.810791
          ],
          [
            107.478172,
            -6.812245
          ],
          [
            107.481166,
            -6.817392
          ],
          [
            107.484733,
            -6.817888
          ],
          [
            107.486254,
            -6.821646
          ],
          [
            107.4908,
            -6.823211
          ],
          [
            107.490387,
            -6.825525
          ],
          [
            107.486601,
            -6.826667
          ],
          [
            107.485658,
            -6.827896
          ],
          [
            107.488375,
            -6.835502
          ],
          [
            107.491468,
            -6.837352
          ],
          [
            107.504578,
            -6.849178
          ],
          [
            107.509541,
            -6.85673
          ],
          [
            107.513315,
            -6.860721
          ],
          [
            107.518393,
            -6.870852
          ],
          [
            107.524489,
            -6.874309
          ],
          [
            107.539622,
            -6.889233
          ],
          [
            107.551652,
            -6.891737
          ],
          [
            107.559166,
            -6.894912
          ],
          [
            107.587457,
            -6.913279
          ],
          [
            107.60313,
            -6.914226
          ]
        ]
      }
    },
    {
      "type": "Feature",
      "properties": {
        "name": "Cimahi",
        "ref": "B12;C12",
        "isCheckpoint": true,
        "role": "stop"
      },
      "geometry": {
        "type": "Point",
        "coordinates": [
          107.536692,
          -6.886529
        ]
      }
    },
    {
      "type": "Feature",
      "properties": {
        "name": "Gambir",
        "isCheckpoint": true,
        "role": "stop_entry_only"
      },
      "geometry": {
        "type": "Point",
        "coordinates": [
          106.830934,
          -6.177818
        ]
      }
    },
    {
      "type": "Feature",
      "properties": {
        "name": "Bekasi",
        "ref": "BKS",
        "isCheckpoint": true,
        "role": "stop"
      },
      "geometry": {
        "type": "Point",
        "coordinates": [
          106.999773,
          -6.236706
        ]
      }
    },
    {
      "type": "Feature",
      "properties": {
        "name": "Bandung",
        "ref": "BD",
        "isCheckpoint": true,
        "role": "stop_exit_only"
      },
      "geometry": {
        "type": "Point",
        "coordinates": [
          107.60313,
          -6.914226
        ]
      }
    },
    {
      "type": "Feature",
      "properties": {
        "name": "Cimahi Outer Geofence",
        "type": "geofence",
        "radius": 500,
        "style": "outer"
      },
      "geometry": {
        "type": "Polygon",
        "coordinates": [
          [
            [
              107.536692,
              -6.882032398181377
            ],
            [
              107.53624805730726,
              -6.88205405034349
            ],
            [
              107.53580838990479,
              -6.88211879831356
            ],
            [
              107.5353772319141,
              -6.882226018550693
            ],
            [
              107.53495873551552,
              -6.882374678493733
            ],
            [
              107.53455693096446,
              -6.8825633465042975
            ],
            [
              107.53417568778157,
              -6.8827902056527845
            ],
            [
              107.53381867748995,
              -6.883053071214605
            ],
            [
              107.53348933825869,
              -6.883349411708241
            ],
            [
              107.53319084179272,
              -6.883676373272585
            ],
            [
              107.532926062788,
              -6.884030807148887
            ],
            [
              107.5326975512462,
              -6.88440930000272
            ],
            [
              107.5325075079155,
              -6.884808206794048
            ],
            [
              107.53235776309384,
              -6.885223685878912
            ],
            [
              107.53224975899936,
              -6.885651736004774
            ],
            [
              107.53218453587739,
              -6.886088234843305
            ],
            [
              107.53216272197815,
              -6.8865289786895625
            ],
            [
              107.53218452750205,
              -6.8869697229452935
            ],
            [
              107.53224974257054,
              -6.887406222996512
            ],
            [
              107.53235773924287,
              -6.88783427509167
            ],
            [
              107.53250747755898,
              -6.8882497568267596
            ],
            [
              107.53269751555072,
              -6.888648666847397
            ],
            [
              107.53292602312528,
              -6.889027163385524
            ],
            [
              107.533190799687,
              -6.889381601259518
            ],
            [
              107.5334892953281,
              -6.889708566981322
            ],
            [
              107.53381863538425,
              -6.890004911632418
            ],
            [
              107.53417564811886,
              -6.8902677811919295
            ],
            [
              107.53455689526896,
              -6.8904946440247095
            ],
            [
              107.53495870515899,
              -6.890683315264585
            ],
            [
              107.53537720806314,
              -6.89083197785785
            ],
            [
              107.53580837347596,
              -6.890939200064279
            ],
            [
              107.53624804893192,
              -6.891003949247036
            ],
            [
              107.536692,
              -6.891025601818623
            ],
            [
              107.5371359510681,
              -6.891003949247036
            ],
            [
              107.53757562652405,
              -6.890939200064279
            ],
            [
              107.53800679193687,
              -6.89083197785785
            ],
            [
              107.538425294841,
              -6.890683315264585
            ],
            [
              107.53882710473103,
              -6.8904946440247095
            ],
            [
              107.53920835188114,
              -6.8902677811919295
            ],
            [
              107.53956536461574,
              -6.890004911632418
            ],
            [
              107.53989470467191,
              -6.889708566981322
            ],
            [
              107.54019320031298,
              -6.889381601259518
            ],
            [
              107.5404579768747,
              -6.889027163385524
            ],
            [
              107.5406864844493,
              -6.888648666847397
            ],
            [
              107.54087652244102,
              -6.8882497568267596
            ],
            [
              107.54102626075712,
              -6.88783427509167
            ],
            [
              107.54113425742946,
              -6.887406222996512
            ],
            [
              107.54119947249796,
              -6.8869697229452935
            ],
            [
              107.54122127802185,
              -6.8865289786895625
            ],
            [
              107.54119946412263,
              -6.886088234843305
            ],
            [
              107.54113424100063,
              -6.885651736004774
            ],
            [
              107.54102623690616,
              -6.885223685878912
            ],
            [
              107.54087649208452,
              -6.884808206794048
            ],
            [
              107.5406864487538,
              -6.88440930000272
            ],
            [
              107.54045793721203,
              -6.884030807148887
            ],
            [
              107.54019315820729,
              -6.883676373272585
            ],
            [
              107.53989466174131,
              -6.883349411708241
            ],
            [
              107.53956532251004,
              -6.883053071214605
            ],
            [
              107.53920831221843,
              -6.8827902056527845
            ],
            [
              107.53882706903553,
              -6.8825633465042975
            ],
            [
              107.5384252644845,
              -6.882374678493733
            ],
            [
              107.53800676808592,
              -6.882226018550693
            ],
            [
              107.53757561009522,
              -6.88211879831356
            ],
            [
              107.53713594269276,
              -6.88205405034349
            ],
            [
              107.536692,
              -6.882032398181377
            ]
          ]
        ]
      }
    },
    {
      "type": "Feature",
      "properties": {
        "name": "Cimahi Inner Geofence",
        "type": "geofence",
        "radius": 250,
        "style": "inner"
      },
      "geometry": {
        "type": "Polygon",
        "coordinates": [
          [
            [
              107.536692,
              -6.88428069909069
            ],
            [
              107.53647002760707,
              -6.884291525222912
            ],
            [
              107.53625019289947,
              -6.884323899359483
            ],
            [
              107.53603461297665,
              -6.884377509724134
            ],
            [
              107.53582536396436,
              -6.884451840026833
            ],
            [
              107.53562446102163,
              -6.884546174435669
            ],
            [
              107.53543383893434,
              -6.88465960447034
            ],
            [
              107.53525533348314,
              -6.884791037750863
            ],
            [
              107.5350906637643,
              -6.884939208517287
            ],
            [
              107.53494141563426,
              -6.885102689819096
            ],
            [
              107.53480902643707,
              -6.88527990725695
            ],
            [
              107.53469477116184,
              -6.885469154144435
            ],
            [
              107.53459975016365,
              -6.885668607943834
            ],
            [
              107.5345248785658,
              -6.8858763478176535
            ],
            [
              107.53447087744617,
              -6.886090373126887
            ],
            [
              107.53443826689175,
              -6.886308622697904
            ],
            [
              107.53442736098903,
              -6.886528994672392
            ],
            [
              107.53443826479793,
              -6.886749366749248
            ],
            [
              107.53447087333896,
              -6.886967616623436
            ],
            [
              107.53452487260306,
              -6.887181642424994
            ],
            [
              107.5345997425745,
              -6.88738938296137
            ],
            [
              107.53469476223796,
              -6.887588837568098
            ],
            [
              107.53480901652138,
              -6.887778085376654
            ],
            [
              107.53494140510784,
              -6.887955303813932
            ],
            [
              107.53509065303165,
              -6.888118786155106
            ],
            [
              107.5352553229567,
              -6.888266957960894
            ],
            [
              107.53543382901866,
              -6.88839839224084
            ],
            [
              107.53562445209775,
              -6.888511823196583
            ],
            [
              107.53582535637524,
              -6.888606158412748
            ],
            [
              107.5360346070139,
              -6.888680489378004
            ],
            [
              107.53625018879227,
              -6.888734100234977
            ],
            [
              107.53647002551324,
              -6.88876647467472
            ],
            [
              107.536692,
              -6.888777300909313
            ],
            [
              107.53691397448678,
              -6.88876647467472
            ],
            [
              107.53713381120775,
              -6.888734100234977
            ],
            [
              107.5373493929861,
              -6.888680489378004
            ],
            [
              107.53755864362475,
              -6.888606158412748
            ],
            [
              107.53775954790225,
              -6.888511823196583
            ],
            [
              107.53795017098135,
              -6.88839839224084
            ],
            [
              107.53812867704329,
              -6.888266957960894
            ],
            [
              107.53829334696837,
              -6.888118786155106
            ],
            [
              107.53844259489217,
              -6.887955303813932
            ],
            [
              107.53857498347861,
              -6.887778085376654
            ],
            [
              107.53868923776203,
              -6.887588837568098
            ],
            [
              107.5387842574255,
              -6.88738938296137
            ],
            [
              107.53885912739695,
              -6.887181642424994
            ],
            [
              107.53891312666104,
              -6.886967616623436
            ],
            [
              107.53894573520208,
              -6.886749366749248
            ],
            [
              107.53895663901098,
              -6.886528994672392
            ],
            [
              107.53894573310824,
              -6.886308622697904
            ],
            [
              107.53891312255384,
              -6.886090373126887
            ],
            [
              107.53885912143421,
              -6.8858763478176535
            ],
            [
              107.53878424983637,
              -6.885668607943834
            ],
            [
              107.53868922883815,
              -6.885469154144435
            ],
            [
              107.53857497356294,
              -6.88527990725695
            ],
            [
              107.53844258436574,
              -6.885102689819096
            ],
            [
              107.53829333623571,
              -6.884939208517287
            ],
            [
              107.53812866651687,
              -6.884791037750863
            ],
            [
              107.53795016106568,
              -6.88465960447034
            ],
            [
              107.53775953897838,
              -6.884546174435669
            ],
            [
              107.53755863603563,
              -6.884451840026833
            ],
            [
              107.53734938702335,
              -6.884377509724134
            ],
            [
              107.53713380710055,
              -6.884323899359483
            ],
            [
              107.53691397239295,
              -6.884291525222912
            ],
            [
              107.536692,
              -6.88428069909069
            ]
          ]
        ]
      }
    }
  ]
}