{
  "type": "FeatureCollection",
  "features": [
    {
      "type": "Feature",
      "properties": {
        "colour": "orange",
        "from": "Malang",
        "name": "Malabar: Malang → Bandung",
        "network": "KAI",
        "network:wikidata": "Q2745027",
        "operator": "KAI",
        "public_transport:version": "2",
        "ref": "Malabar",
        "route": "train",
        "to": "Bandung",
        "type": "route",
        "wikidata": "Q12491164",
        "wikipedia": "id:Kereta api Malabar",
        "algorithm": "Douglas-Peucker (Rerouted & Simplified via OSM Relation)",
        "epsilon": 0.006,
        "points": 148
      },
      "geometry": {
        "type": "LineString",
        "coordinates": [
          [
            112.6373464,
            -7.9790275
          ],
          [
            112.6319415,
            -7.9954465
          ],
          [
            112.5728812,
            -8.132748
          ],
          [
            112.4780531,
            -8.1583792
          ],
          [
            112.4684126,
            -8.1590018
          ],
          [
            112.462209,
            -8.1635723
          ],
          [
            112.4475869,
            -8.1494737
          ],
          [
            112.4431961,
            -8.1590647
          ],
          [
            112.434033,
            -8.1542953
          ],
          [
            112.3972189,
            -8.1626008
          ],
          [
            112.3894826,
            -8.1609001
          ],
          [
            112.3806271,
            -8.1663149
          ],
          [
            112.374248,
            -8.1650609
          ],
          [
            112.3652029,
            -8.1503158
          ],
          [
            112.3419576,
            -8.1395008
          ],
          [
            112.3365849,
            -8.1241083
          ],
          [
            112.3364131,
            -8.1034474
          ],
          [
            112.3194641,
            -8.0879868
          ],
          [
            112.3158012,
            -8.086171
          ],
          [
            112.3024963,
            -8.0866398
          ],
          [
            112.2916528,
            -8.0920315
          ],
          [
            112.2747841,
            -8.0906863
          ],
          [
            112.2139354,
            -8.0736676
          ],
          [
            112.1978047,
            -8.0806266
          ],
          [
            112.181497,
            -8.0983788
          ],
          [
            112.1718908,
            -8.1031412
          ],
          [
            112.1613948,
            -8.101126
          ],
          [
            112.1304539,
            -8.0948914
          ],
          [
            112.1011844,
            -8.0851464
          ],
          [
            112.09655,
            -8.0912729
          ],
          [
            112.1039852,
            -8.1001256
          ],
          [
            112.103707,
            -8.1050248
          ],
          [
            112.0941105,
            -8.1182944
          ],
          [
            112.0778592,
            -8.1213952
          ],
          [
            112.0162997,
            -8.1030608
          ],
          [
            112.0038322,
            -8.1026367
          ],
          [
            111.9077682,
            -8.0699088
          ],
          [
            111.9049,
            -8.0662746
          ],
          [
            111.9047883,
            -8.0511979
          ],
          [
            111.9046015,
            -8.0625633
          ],
          [
            111.9963734,
            -7.8840905
          ],
          [
            112.0069283,
            -7.8579554
          ],
          [
            112.0157311,
            -7.8162448
          ],
          [
            112.0253791,
            -7.7733939
          ],
          [
            112.034969,
            -7.7483199
          ],
          [
            112.0619196,
            -7.7243647
          ],
          [
            112.0769611,
            -7.7041523
          ],
          [
            112.0999248,
            -7.5918335
          ],
          [
            112.1016581,
            -7.6437948
          ],
          [
            112.1130635,
            -7.6020866
          ],
          [
            112.1116342,
            -7.5965164
          ],
          [
            112.0969229,
            -7.591363
          ],
          [
            112.0445023,
            -7.6023766
          ],
          [
            111.9967025,
            -7.6059312
          ],
          [
            111.9017,
            -7.6002457
          ],
          [
            111.8176015,
            -7.5674623
          ],
          [
            111.8133996,
            -7.5691318
          ],
          [
            111.7983698,
            -7.5570238
          ],
          [
            111.7888144,
            -7.5633272
          ],
          [
            111.7612872,
            -7.5604728
          ],
          [
            111.7366283,
            -7.5472094
          ],
          [
            111.6509735,
            -7.5516435
          ],
          [
            111.5350608,
            -7.6177706
          ],
          [
            111.5238865,
            -7.6185833
          ],
          [
            111.5141047,
            -7.6185074
          ],
          [
            111.4447093,
            -7.5559401
          ],
          [
            111.3936956,
            -7.4447374
          ],
          [
            111.3860743,
            -7.4419921
          ],
          [
            111.2584443,
            -7.4040287
          ],
          [
            111.1745913,
            -7.3913034
          ],
          [
            111.1548319,
            -7.3899674
          ],
          [
            111.1227599,
            -7.4037666
          ],
          [
            111.02056,
            -7.42861
          ],
          [
            111.0002478,
            -7.4329542
          ],
          [
            110.9420373,
            -7.4726159
          ],
          [
            110.8796816,
            -7.5662427
          ],
          [
            110.8656418,
            -7.5701971
          ],
          [
            110.8247781,
            -7.5561411
          ],
          [
            110.8199548,
            -7.557157
          ],
          [
            110.7774883,
            -7.5660795
          ],
          [
            110.7158173,
            -7.6098284
          ],
          [
            110.6761068,
            -7.6681252
          ],
          [
            110.6479517,
            -7.6874557
          ],
          [
            110.6023249,
            -7.7127524
          ],
          [
            110.5188052,
            -7.7577514
          ],
          [
            110.492523,
            -7.7564811
          ],
          [
            110.4501002,
            -7.783946
          ],
          [
            110.3714387,
            -7.7903359
          ],
          [
            110.3622182,
            -7.7889579
          ],
          [
            110.3413175,
            -7.7878259
          ],
          [
            110.2452726,
            -7.8045154
          ],
          [
            110.2313389,
            -7.8169363
          ],
          [
            110.2295612,
            -7.824158
          ],
          [
            110.2219054,
            -7.8268176
          ],
          [
            110.2181138,
            -7.8419002
          ],
          [
            110.208294,
            -7.8548933
          ],
          [
            110.210594,
            -7.8618245
          ],
          [
            110.2086443,
            -7.865051
          ],
          [
            110.1965748,
            -7.8637978
          ],
          [
            110.1884734,
            -7.866756
          ],
          [
            110.1628823,
            -7.8579024
          ],
          [
            110.0943634,
            -7.8792815
          ],
          [
            110.0499638,
            -7.8683117
          ],
          [
            110.0272867,
            -7.8544921
          ],
          [
            110.0186885,
            -7.8403415
          ],
          [
            110.012513,
            -7.814325
          ],
          [
            109.9215368,
            -7.7275308
          ],
          [
            109.9062994,
            -7.7259759
          ],
          [
            109.8463914,
            -7.723483
          ],
          [
            109.8044991,
            -7.7250998
          ],
          [
            109.7366416,
            -7.7176407
          ],
          [
            109.7111733,
            -7.7071765
          ],
          [
            109.6976921,
            -7.6939314
          ],
          [
            109.6617364,
            -7.681689
          ],
          [
            109.6588593,
            -7.6806923
          ],
          [
            109.6537716,
            -7.6760652
          ],
          [
            109.6433226,
            -7.6797753
          ],
          [
            109.6306331,
            -7.6766215
          ],
          [
            109.5776819,
            -7.6350684
          ],
          [
            109.5296212,
            -7.6150784
          ],
          [
            109.511003,
            -7.6105903
          ],
          [
            109.504688,
            -7.6110809
          ],
          [
            109.4416284,
            -7.6159208
          ],
          [
            109.4257082,
            -7.6114438
          ],
          [
            109.369892,
            -7.6132153
          ],
          [
            109.2529649,
            -7.6301526
          ],
          [
            109.2459108,
            -7.6310638
          ],
          [
            109.2335018,
            -7.6276721
          ],
          [
            109.1388631,
            -7.6189981
          ],
          [
            109.119334,
            -7.6174205
          ],
          [
            109.0414255,
            -7.6270038
          ],
          [
            109.0256138,
            -7.6262921
          ],
          [
            109.0101243,
            -7.6158224
          ],
          [
            108.9809175,
            -7.6135138
          ],
          [
            108.9615855,
            -7.6175785
          ],
          [
            108.9368705,
            -7.6145347
          ],
          [
            108.9296379,
            -7.6094044
          ],
          [
            108.9099421,
            -7.5771315
          ],
          [
            108.8631653,
            -7.5319824
          ],
          [
            108.8203037,
            -7.4924073
          ],
          [
            108.8068569,
            -7.4860693
          ],
          [
            108.7959747,
            -7.4807228
          ],
          [
            108.7653732,
            -7.4426109
          ],
          [
            108.730945,
            -7.4212723
          ],
          [
            108.721639,
            -7.4104617
          ],
          [
            108.7070834,
            -7.4060247
          ],
          [
            108.6932235,
            -7.3832778
          ],
          [
            108.6667297,
            -7.3586257
          ],
          [
            108.6480639,
            -7.3572683
          ],
          [
            108.5976675,
            -7.369637
          ],
          [
            108.565714,
            -7.3694872
          ],
          [
            108.5487601,
            -7.376217
          ],
          [
            108.5419504,
            -7.3762944
          ],
          [
            108.540786,
            -7.3762591
          ],
          [
            108.5297677,
            -7.3740417
          ],
          [
            108.4861042,
            -7.3502091
          ],
          [
            108.4578298,
            -7.355624
          ],
          [
            108.4315121,
            -7.3475492
          ],
          [
            108.3554701,
            -7.3293001
          ],
          [
            108.2231253,
            -7.3213073
          ],
          [
            108.0998045,
            -7.0931934
          ],
          [
            107.8997164,
            -7.0838873
          ],
          [
            107.6457751,
            -6.9244847
          ],
          [
            107.6013675,
            -6.9143744
          ]
        ]
      }
    },
    {
      "type": "Feature",
      "properties": {
        "name": "Malang",
        "public_transport": "stop_position",
        "railway": "stop",
        "railway:ref": "ML",
        "train": "yes",
        "isCheckpoint": true,
        "role": "stop_entry_only",
        "schedule_ka68": "06:34",
        "schedule_ka67": "16:50"
      },
      "geometry": {
        "type": "Point",
        "coordinates": [
          112.6373464,
          -7.9790275
        ]
      }
    },
    {
      "type": "Feature",
      "properties": {
        "name": "Malang Kotalama",
        "network": "KAI",
        "public_transport": "stop_position",
        "railway": "stop",
        "railway:ref": "MLK",
        "ref": "P25",
        "train": "yes",
        "isCheckpoint": true,
        "role": "stop",
        "schedule_ka68": "06:17",
        "schedule_ka67": "16:56"
      },
      "geometry": {
        "type": "Point",
        "coordinates": [
          112.6319415,
          -7.9954465
        ]
      }
    },
    {
      "type": "Feature",
      "properties": {
        "name": "Kepanjen",
        "public_transport": "stop_position",
        "railway": "stop",
        "railway:ref": "KPN",
        "ref": "P27",
        "train": "yes",
        "isCheckpoint": true,
        "role": "stop",
        "schedule_ka68": "05:58",
        "schedule_ka67": "17:22"
      },
      "geometry": {
        "type": "Point",
        "coordinates": [
          112.5728812,
          -8.132748
        ]
      }
    },
    {
      "type": "Feature",
      "properties": {
        "name": "Sumberpucung",
        "public_transport": "stop_position",
        "railway": "stop",
        "railway:ref": "SBP",
        "ref": "P29",
        "train": "yes",
        "isCheckpoint": true,
        "role": "stop",
        "schedule_ka68": "05:30",
        "schedule_ka67": "17:40"
      },
      "geometry": {
        "type": "Point",
        "coordinates": [
          112.4780531,
          -8.1583792
        ]
      }
    },
    {
      "type": "Feature",
      "properties": {
        "name": "Wlingi",
        "public_transport": "stop_position",
        "railway": "stop",
        "railway:ref": "WG",
        "ref": "P32",
        "train": "yes",
        "isCheckpoint": true,
        "role": "stop",
        "schedule_ka68": "05:03",
        "schedule_ka67": "18:13"
      },
      "geometry": {
        "type": "Point",
        "coordinates": [
          112.3194641,
          -8.0879868
        ]
      }
    },
    {
      "type": "Feature",
      "properties": {
        "name": "Blitar",
        "public_transport": "stop_position",
        "railway": "stop",
        "railway:ref": "BL",
        "train": "yes",
        "isCheckpoint": true,
        "role": "stop",
        "schedule_ka68": "04:41",
        "schedule_ka67": "18:35"
      },
      "geometry": {
        "type": "Point",
        "coordinates": [
          112.1613948,
          -8.101126
        ]
      }
    },
    {
      "type": "Feature",
      "properties": {
        "name": "Tulungagung",
        "public_transport": "stop_position",
        "railway": "stop",
        "railway:ref": "TA",
        "ref": "D25",
        "train": "yes",
        "isCheckpoint": true,
        "role": "stop",
        "schedule_ka68": "04:15",
        "schedule_ka67": "19:01"
      },
      "geometry": {
        "type": "Point",
        "coordinates": [
          111.9046015,
          -8.0625633
        ]
      }
    },
    {
      "type": "Feature",
      "properties": {
        "name": "Kediri",
        "public_transport": "stop_position",
        "railway": "stop",
        "railway:ref": "KD",
        "ref": "D21",
        "train": "yes",
        "isCheckpoint": true,
        "role": "stop",
        "schedule_ka68": "03:49",
        "schedule_ka67": "19:27"
      },
      "geometry": {
        "type": "Point",
        "coordinates": [
          112.0157311,
          -7.8162448
        ]
      }
    },
    {
      "type": "Feature",
      "properties": {
        "name": "Kertosono",
        "public_transport": "stop_position",
        "railway": "stop",
        "railway:ref": "KTS",
        "train": "yes",
        "isCheckpoint": true,
        "role": "stop",
        "schedule_ka68": "03:22",
        "schedule_ka67": "19:54"
      },
      "geometry": {
        "type": "Point",
        "coordinates": [
          112.0999248,
          -7.5918335
        ]
      }
    },
    {
      "type": "Feature",
      "properties": {
        "name": "Nganjuk",
        "public_transport": "stop_position",
        "railway": "stop",
        "railway:ref": "NJ",
        "train": "yes",
        "isCheckpoint": true,
        "role": "stop",
        "schedule_ka68": "03:02",
        "schedule_ka67": "20:13"
      },
      "geometry": {
        "type": "Point",
        "coordinates": [
          111.9017,
          -7.6002457
        ]
      }
    },
    {
      "type": "Feature",
      "properties": {
        "name": "Madiun",
        "public_transport": "stop_position",
        "railway": "stop",
        "railway:ref": "MN",
        "train": "yes",
        "isCheckpoint": true,
        "role": "stop",
        "schedule_ka68": "02:26",
        "schedule_ka67": "20:47"
      },
      "geometry": {
        "type": "Point",
        "coordinates": [
          111.5238865,
          -7.6185833
        ]
      }
    },
    {
      "type": "Feature",
      "properties": {
        "name": "Ngawi",
        "public_transport": "stop_position",
        "railway": "stop",
        "railway:ref": "NGW",
        "train": "yes",
        "isCheckpoint": true,
        "role": "stop",
        "schedule_ka68": "02:03",
        "schedule_ka67": "21:10"
      },
      "geometry": {
        "type": "Point",
        "coordinates": [
          111.3860743,
          -7.4419921
        ]
      }
    },
    {
      "type": "Feature",
      "properties": {
        "name": "Sragen",
        "public_transport": "stop_position",
        "railway": "stop",
        "railway:ref": "SR",
        "train": "yes",
        "isCheckpoint": true,
        "role": "stop",
        "schedule_ka68": "01:20",
        "schedule_ka67": "21:29"
      },
      "geometry": {
        "type": "Point",
        "coordinates": [
          111.02056,
          -7.42861
        ]
      }
    },
    {
      "type": "Feature",
      "properties": {
        "name": "Solo Balapan",
        "public_transport": "stop_position",
        "railway": "stop",
        "railway:ref": "SLO",
        "train": "yes",
        "isCheckpoint": true,
        "role": "stop",
        "schedule_ka68": "01:05",
        "schedule_ka67": "21:54"
      },
      "geometry": {
        "type": "Point",
        "coordinates": [
          110.8199548,
          -7.557157
        ]
      }
    },
    {
      "type": "Feature",
      "properties": {
        "name": "Klaten",
        "public_transport": "stop_position",
        "railway": "stop",
        "railway:ref": "KT",
        "ref": "Y06;AS01;JS02",
        "train": "yes",
        "isCheckpoint": true,
        "role": "stop",
        "schedule_ka68": "00:40",
        "schedule_ka67": "22:19"
      },
      "geometry": {
        "type": "Point",
        "coordinates": [
          110.6023249,
          -7.7127524
        ]
      }
    },
    {
      "type": "Feature",
      "properties": {
        "name": "Yogyakarta",
        "public_transport": "stop_position",
        "railway": "stop",
        "railway:ref": "YK",
        "ref": "JS05",
        "train": "yes",
        "isCheckpoint": true,
        "role": "stop",
        "schedule_ka68": "00:15",
        "schedule_ka67": "22:45"
      },
      "geometry": {
        "type": "Point",
        "coordinates": [
          110.3622182,
          -7.7889579
        ]
      }
    },
    {
      "type": "Feature",
      "properties": {
        "name": "Kutoarjo",
        "public_transport": "stop_position",
        "railway": "stop",
        "railway:ref": "KTA",
        "ref": "JS07",
        "train": "yes",
        "isCheckpoint": true,
        "role": "stop",
        "schedule_ka68": "23:22",
        "schedule_ka67": "23:37"
      },
      "geometry": {
        "type": "Point",
        "coordinates": [
          109.9062994,
          -7.7259759
        ]
      }
    },
    {
      "type": "Feature",
      "properties": {
        "name": "Kebumen",
        "public_transport": "stop_position",
        "railway": "stop",
        "railway:ref": "KM",
        "ref": "JS08",
        "train": "yes",
        "isCheckpoint": true,
        "role": "stop",
        "schedule_ka68": "22:56",
        "schedule_ka67": "00:03"
      },
      "geometry": {
        "type": "Point",
        "coordinates": [
          109.6617364,
          -7.681689
        ]
      }
    },
    {
      "type": "Feature",
      "properties": {
        "name": "Gombong",
        "public_transport": "stop_position",
        "railway": "stop",
        "railway:ref": "GB",
        "ref": "JS09",
        "train": "yes",
        "isCheckpoint": true,
        "role": "stop",
        "schedule_ka68": "22:38",
        "schedule_ka67": "00:03"
      },
      "geometry": {
        "type": "Point",
        "coordinates": [
          109.504688,
          -7.6110809
        ]
      }
    },
    {
      "type": "Feature",
      "properties": {
        "name": "Kroya",
        "network": "KAI",
        "operator": "Kereta Api Indonesia",
        "public_transport": "stop_position",
        "railway": "stop",
        "railway:ref": "KYA",
        "ref": "JS12",
        "train": "yes",
        "isCheckpoint": true,
        "role": "stop",
        "schedule_ka68": "22:12",
        "schedule_ka67": "00:52"
      },
      "geometry": {
        "type": "Point",
        "coordinates": [
          109.2529649,
          -7.6301526
        ]
      }
    },
    {
      "type": "Feature",
      "properties": {
        "name": "Maos",
        "network": "KAI",
        "operator": "Kereta Api Indonesia",
        "public_transport": "stop_position",
        "railway": "stop",
        "railway:ref": "KD12;JC01",
        "ref": "MA",
        "train": "yes",
        "isCheckpoint": true,
        "role": "stop"
      },
      "geometry": {
        "type": "Point",
        "coordinates": [
          109.1388631,
          -7.6189981
        ]
      }
    },
    {
      "type": "Feature",
      "properties": {
        "name": "Sidareja",
        "network": "KAI",
        "operator": "Kereta Api Indonesia",
        "public_transport": "stop_position",
        "railway": "stop",
        "railway:ref": "SDR",
        "train": "yes",
        "isCheckpoint": true,
        "role": "stop"
      },
      "geometry": {
        "type": "Point",
        "coordinates": [
          108.8068569,
          -7.4860693
        ]
      }
    },
    {
      "type": "Feature",
      "properties": {
        "name": "Banjar",
        "network": "KAI",
        "operator": "Kereta Api Indonesia",
        "public_transport": "stop_position",
        "railway": "stop",
        "ref": "BJR",
        "train": "yes",
        "isCheckpoint": true,
        "role": "stop",
        "schedule_ka68": "20:46",
        "schedule_ka67": "02:20"
      },
      "geometry": {
        "type": "Point",
        "coordinates": [
          108.5419504,
          -7.3762944
        ]
      }
    },
    {
      "type": "Feature",
      "properties": {
        "name": "Ciamis",
        "network": "KAI",
        "operator": "Kereta Api Indonesia",
        "public_transport": "stop_position",
        "railway": "stop",
        "railway:ref": "CI",
        "train": "yes",
        "isCheckpoint": true,
        "role": "stop"
      },
      "geometry": {
        "type": "Point",
        "coordinates": [
          108.3554701,
          -7.3293001
        ]
      }
    },
    {
      "type": "Feature",
      "properties": {
        "name": "Tasikmalaya",
        "network": "KAI",
        "operator": "Kereta Api Indonesia",
        "public_transport": "stop_position",
        "railway": "stop",
        "railway:ref": "TSM",
        "train": "yes",
        "isCheckpoint": true,
        "role": "stop",
        "schedule_ka68": "20:01",
        "schedule_ka67": "03:06"
      },
      "geometry": {
        "type": "Point",
        "coordinates": [
          108.2231253,
          -7.3213073
        ]
      }
    },
    {
      "type": "Feature",
      "properties": {
        "name": "Cipeundeuy",
        "network": "KAI",
        "operator": "Kereta Api Indonesia",
        "public_transport": "stop_position",
        "railway": "stop",
        "ref": "CPD",
        "train": "yes",
        "isCheckpoint": true,
        "role": "stop",
        "schedule_ka68": "19:15",
        "schedule_ka67": "03:52"
      },
      "geometry": {
        "type": "Point",
        "coordinates": [
          108.0998045,
          -7.0931934
        ]
      }
    },
    {
      "type": "Feature",
      "properties": {
        "name": "Leles",
        "network": "KAI",
        "operator": "Kereta Api Indonesia",
        "public_transport": "stop_position",
        "railway": "stop",
        "ref": "C26",
        "train": "yes",
        "isCheckpoint": true,
        "role": "stop",
        "schedule_ka68": "18:35",
        "schedule_ka67": "04:35"
      },
      "geometry": {
        "type": "Point",
        "coordinates": [
          107.8997164,
          -7.0838873
        ]
      }
    },
    {
      "type": "Feature",
      "properties": {
        "name": "Kiaracondong",
        "network": "KAI",
        "operator": "KAI",
        "public_transport": "stop_position",
        "railway": "stop",
        "railway:ref": "KAC",
        "train": "yes",
        "isCheckpoint": true,
        "role": "stop_exit_only",
        "schedule_ka68": "17:31",
        "schedule_ka67": "05:33"
      },
      "geometry": {
        "type": "Point",
        "coordinates": [
          107.6457751,
          -6.9244847
        ]
      }
    },
    {
      "type": "Feature",
      "properties": {
        "local_ref": "4",
        "name": "Bandung",
        "name:ja": "バンドン",
        "network": "KAI Commuter",
        "operator": "Kereta Api Indonesia",
        "public_transport": "stop_position",
        "railway": "stop",
        "ref": "B16;C16",
        "train": "yes",
        "isCheckpoint": true,
        "role": "stop_exit_only",
        "schedule_ka68": "17:20",
        "schedule_ka67": "05:45"
      },
      "geometry": {
        "type": "Point",
        "coordinates": [
          107.6013675,
          -6.9143744
        ]
      }
    }
  ]
}