{
  "type": "FeatureCollection",
  "stations": [
    "Bandung",
    "Cikudapateuh",
    "Kiaracondong",
    "Gedebage",
    "Cimekar",
    "Rancaekek",
    "Haurpugur",
    "Cicalengka",
    "Nagreg",
    "Lebakjero",
    "Leles",
    "Karangsari (Garut)",
    "Leuwigoong",
    "Cibatu",
    "Warungbandrek",
    "Bumiwaluya",
    "Cipeundeuy",
    "Cirahayu",
    "Ciawi",
    "Rajapolah",
    "Indihiang",
    "Tasikmalaya",
    "Awipari",
    "Manonjaya",
    "Ciamis",
    "Bojong",
    "Karangpucung",
    "Banjar",
    "Langen",
    "Meluwung",
    "Cipari",
    "Sidareja",
    "Gandrungmangun",
    "Kawunganten",
    "Jeruklegi",
    "Lebeng",
    "Kasugihan",
    "Maos",
    "Sikampuh",
    "Kroya",
    "Kemranjen",
    "Sumpiuh",
    "Tambak",
    "Ijo",
    "Gombong",
    "Karanganyar",
    "Sruweng",
    "Kebumen",
    "Wonosari",
    "Kutowinangun",
    "Prembun",
    "Butuh",
    "Kutoarjo",
    "Yogyakarta",
    "Solo Balapan",
    "Madiun",
    "Kediri",
    "Blitar",
    "Kepanjen",
    "Malang Kotalama",
    "Malang"
  ],
  "features": [
    {
      "type": "Feature",
      "properties": {
        "colour": "orange",
        "from": "Bandung",
        "name": "Malabar: Bandung - Malang",
        "network": "KAI",
        "operator": "KAI",
        "ref": "Malabar",
        "route": "train",
        "to": "Malang",
        "type": "route",
        "available_directions": [
          {
            "num": "67",
            "label": "KA 67 (Malang -> Bandung)"
          },
          {
            "num": "68",
            "label": "KA 68 (Bandung -> Malang)"
          },
          {
            "num": "69",
            "label": "KA 69 (Malang -> Bandung)"
          },
          {
            "num": "70",
            "label": "KA 70 (Bandung -> Malang)"
          }
        ],
        "ka67_active": true,
        "ka68_active": true,
        "ka69_active": true,
        "ka70_active": true
      },
      "geometry": {
        "type": "LineString",
        "coordinates": [
          [
            107.60981,
            -6.914744
          ],
          [
            107.623056,
            -6.923889
          ],
          [
            107.641415,
            -6.925393
          ],
          [
            107.698611,
            -6.949722
          ],
          [
            107.720278,
            -6.966389
          ],
          [
            107.760556,
            -6.973611
          ],
          [
            107.781944,
            -6.987222
          ],
          [
            107.829167,
            -6.998056
          ],
          [
            107.886389,
            -7.019722
          ],
          [
            107.941667,
            -7.0575
          ],
          [
            107.9025,
            -7.115278
          ],
          [
            107.904167,
            -7.143056
          ],
          [
            107.938056,
            -7.180833
          ],
          [
            107.983611,
            -7.221389
          ],
          [
            108.016389,
            -7.245278
          ],
          [
            108.060556,
            -7.275278
          ],
          [
            108.103611,
            -7.3
          ],
          [
            108.147778,
            -7.308056
          ],
          [
            108.186944,
            -7.316944
          ],
          [
            108.213333,
            -7.323611
          ],
          [
            108.229722,
            -7.325833
          ],
          [
            108.220909,
            -7.327466
          ],
          [
            108.252778,
            -7.339167
          ],
          [
            108.287778,
            -7.351111
          ],
          [
            108.353991,
            -7.325873
          ],
          [
            108.401111,
            -7.339722
          ],
          [
            108.448333,
            -7.351667
          ],
          [
            108.533333,
            -7.366667
          ],
          [
            108.585833,
            -7.400278
          ],
          [
            108.640556,
            -7.43
          ],
          [
            108.703056,
            -7.458611
          ],
          [
            108.792778,
            -7.480833
          ],
          [
            108.845833,
            -7.504167
          ],
          [
            108.9125,
            -7.523333
          ],
          [
            109.02,
            -7.579167
          ],
          [
            109.083333,
            -7.6
          ],
          [
            109.15,
            -7.62
          ],
          [
            109.186667,
            -7.633056
          ],
          [
            109.215,
            -7.64
          ],
          [
            109.246111,
            -7.633056
          ],
          [
            109.3075,
            -7.665278
          ],
          [
            109.364444,
            -7.690278
          ],
          [
            109.402222,
            -7.705556
          ],
          [
            109.44,
            -7.72
          ],
          [
            109.514444,
            -7.728889
          ],
          [
            109.58,
            -7.75
          ],
          [
            109.64,
            -7.77
          ],
          [
            109.653889,
            -7.678611
          ],
          [
            109.7,
            -7.7
          ],
          [
            109.77,
            -7.72
          ],
          [
            109.8,
            -7.73
          ],
          [
            109.84,
            -7.735
          ],
          [
            109.907222,
            -7.718333
          ],
          [
            110.363889,
            -7.789167
          ],
          [
            110.821667,
            -7.556111
          ],
          [
            111.523889,
            -7.618889
          ],
          [
            112.016667,
            -7.816667
          ],
          [
            112.164444,
            -8.095556
          ],
          [
            112.573889,
            -8.135278
          ],
          [
            112.626944,
            -7.981667
          ],
          [
            112.632632,
            -7.96662
          ]
        ]
      }
    },
    {
      "type": "Feature",
      "properties": {
        "name": "Bandung",
        "railway": "stop",
        "isCheckpoint": true,
        "role": "stop",
        "is_origin_ka68": true,
        "is_origin_ka70": true
      },
      "geometry": {
        "type": "Point",
        "coordinates": [
          107.60981,
          -6.914744
        ]
      }
    },
    {
      "type": "Feature",
      "properties": {
        "name": "Cikudapateuh",
        "railway": "stop",
        "isCheckpoint": true,
        "role": "stop"
      },
      "geometry": {
        "type": "Point",
        "coordinates": [
          107.623056,
          -6.923889
        ]
      }
    },
    {
      "type": "Feature",
      "properties": {
        "name": "Kiaracondong",
        "railway": "stop",
        "isCheckpoint": true,
        "role": "stop"
      },
      "geometry": {
        "type": "Point",
        "coordinates": [
          107.641415,
          -6.925393
        ]
      }
    },
    {
      "type": "Feature",
      "properties": {
        "name": "Gedebage",
        "railway": "stop",
        "isCheckpoint": true,
        "role": "stop"
      },
      "geometry": {
        "type": "Point",
        "coordinates": [
          107.698611,
          -6.949722
        ]
      }
    },
    {
      "type": "Feature",
      "properties": {
        "name": "Cimekar",
        "railway": "stop",
        "isCheckpoint": true,
        "role": "stop"
      },
      "geometry": {
        "type": "Point",
        "coordinates": [
          107.720278,
          -6.966389
        ]
      }
    },
    {
      "type": "Feature",
      "properties": {
        "name": "Rancaekek",
        "railway": "stop",
        "isCheckpoint": true,
        "role": "stop"
      },
      "geometry": {
        "type": "Point",
        "coordinates": [
          107.760556,
          -6.973611
        ]
      }
    },
    {
      "type": "Feature",
      "properties": {
        "name": "Haurpugur",
        "railway": "stop",
        "isCheckpoint": true,
        "role": "stop"
      },
      "geometry": {
        "type": "Point",
        "coordinates": [
          107.781944,
          -6.987222
        ]
      }
    },
    {
      "type": "Feature",
      "properties": {
        "name": "Cicalengka",
        "railway": "stop",
        "isCheckpoint": true,
        "role": "stop"
      },
      "geometry": {
        "type": "Point",
        "coordinates": [
          107.829167,
          -6.998056
        ]
      }
    },
    {
      "type": "Feature",
      "properties": {
        "name": "Nagreg",
        "railway": "stop",
        "isCheckpoint": true,
        "role": "stop"
      },
      "geometry": {
        "type": "Point",
        "coordinates": [
          107.886389,
          -7.019722
        ]
      }
    },
    {
      "type": "Feature",
      "properties": {
        "name": "Lebakjero",
        "railway": "stop",
        "isCheckpoint": true,
        "role": "stop"
      },
      "geometry": {
        "type": "Point",
        "coordinates": [
          107.941667,
          -7.0575
        ]
      }
    },
    {
      "type": "Feature",
      "properties": {
        "name": "Leles",
        "railway": "stop",
        "isCheckpoint": true,
        "role": "stop"
      },
      "geometry": {
        "type": "Point",
        "coordinates": [
          107.9025,
          -7.115278
        ]
      }
    },
    {
      "type": "Feature",
      "properties": {
        "name": "Karangsari (Garut)",
        "railway": "stop",
        "isCheckpoint": true,
        "role": "stop"
      },
      "geometry": {
        "type": "Point",
        "coordinates": [
          107.904167,
          -7.143056
        ]
      }
    },
    {
      "type": "Feature",
      "properties": {
        "name": "Leuwigoong",
        "railway": "stop",
        "isCheckpoint": true,
        "role": "stop"
      },
      "geometry": {
        "type": "Point",
        "coordinates": [
          107.938056,
          -7.180833
        ]
      }
    },
    {
      "type": "Feature",
      "properties": {
        "name": "Cibatu",
        "railway": "stop",
        "isCheckpoint": true,
        "role": "stop"
      },
      "geometry": {
        "type": "Point",
        "coordinates": [
          107.983611,
          -7.221389
        ]
      }
    },
    {
      "type": "Feature",
      "properties": {
        "name": "Warungbandrek",
        "railway": "stop",
        "isCheckpoint": true,
        "role": "stop"
      },
      "geometry": {
        "type": "Point",
        "coordinates": [
          108.016389,
          -7.245278
        ]
      }
    },
    {
      "type": "Feature",
      "properties": {
        "name": "Bumiwaluya",
        "railway": "stop",
        "isCheckpoint": true,
        "role": "stop"
      },
      "geometry": {
        "type": "Point",
        "coordinates": [
          108.060556,
          -7.275278
        ]
      }
    },
    {
      "type": "Feature",
      "properties": {
        "name": "Cipeundeuy",
        "railway": "stop",
        "isCheckpoint": true,
        "role": "stop"
      },
      "geometry": {
        "type": "Point",
        "coordinates": [
          108.103611,
          -7.3
        ]
      }
    },
    {
      "type": "Feature",
      "properties": {
        "name": "Cirahayu",
        "railway": "stop",
        "isCheckpoint": true,
        "role": "stop"
      },
      "geometry": {
        "type": "Point",
        "coordinates": [
          108.147778,
          -7.308056
        ]
      }
    },
    {
      "type": "Feature",
      "properties": {
        "name": "Ciawi",
        "railway": "stop",
        "isCheckpoint": true,
        "role": "stop"
      },
      "geometry": {
        "type": "Point",
        "coordinates": [
          108.186944,
          -7.316944
        ]
      }
    },
    {
      "type": "Feature",
      "properties": {
        "name": "Rajapolah",
        "railway": "stop",
        "isCheckpoint": true,
        "role": "stop"
      },
      "geometry": {
        "type": "Point",
        "coordinates": [
          108.213333,
          -7.323611
        ]
      }
    },
    {
      "type": "Feature",
      "properties": {
        "name": "Indihiang",
        "railway": "stop",
        "isCheckpoint": true,
        "role": "stop"
      },
      "geometry": {
        "type": "Point",
        "coordinates": [
          108.229722,
          -7.325833
        ]
      }
    },
    {
      "type": "Feature",
      "properties": {
        "name": "Tasikmalaya",
        "railway": "stop",
        "isCheckpoint": true,
        "role": "stop"
      },
      "geometry": {
        "type": "Point",
        "coordinates": [
          108.220909,
          -7.327466
        ]
      }
    },
    {
      "type": "Feature",
      "properties": {
        "name": "Awipari",
        "railway": "stop",
        "isCheckpoint": true,
        "role": "stop"
      },
      "geometry": {
        "type": "Point",
        "coordinates": [
          108.252778,
          -7.339167
        ]
      }
    },
    {
      "type": "Feature",
      "properties": {
        "name": "Manonjaya",
        "railway": "stop",
        "isCheckpoint": true,
        "role": "stop"
      },
      "geometry": {
        "type": "Point",
        "coordinates": [
          108.287778,
          -7.351111
        ]
      }
    },
    {
      "type": "Feature",
      "properties": {
        "name": "Ciamis",
        "railway": "stop",
        "isCheckpoint": true,
        "role": "stop"
      },
      "geometry": {
        "type": "Point",
        "coordinates": [
          108.353991,
          -7.325873
        ]
      }
    },
    {
      "type": "Feature",
      "properties": {
        "name": "Bojong",
        "railway": "stop",
        "isCheckpoint": true,
        "role": "stop"
      },
      "geometry": {
        "type": "Point",
        "coordinates": [
          108.401111,
          -7.339722
        ]
      }
    },
    {
      "type": "Feature",
      "properties": {
        "name": "Karangpucung",
        "railway": "stop",
        "isCheckpoint": true,
        "role": "stop"
      },
      "geometry": {
        "type": "Point",
        "coordinates": [
          108.448333,
          -7.351667
        ]
      }
    },
    {
      "type": "Feature",
      "properties": {
        "name": "Banjar",
        "railway": "stop",
        "isCheckpoint": true,
        "role": "stop"
      },
      "geometry": {
        "type": "Point",
        "coordinates": [
          108.533333,
          -7.366667
        ]
      }
    },
    {
      "type": "Feature",
      "properties": {
        "name": "Langen",
        "railway": "stop",
        "isCheckpoint": true,
        "role": "stop"
      },
      "geometry": {
        "type": "Point",
        "coordinates": [
          108.585833,
          -7.400278
        ]
      }
    },
    {
      "type": "Feature",
      "properties": {
        "name": "Meluwung",
        "railway": "stop",
        "isCheckpoint": true,
        "role": "stop"
      },
      "geometry": {
        "type": "Point",
        "coordinates": [
          108.640556,
          -7.43
        ]
      }
    },
    {
      "type": "Feature",
      "properties": {
        "name": "Cipari",
        "railway": "stop",
        "isCheckpoint": true,
        "role": "stop"
      },
      "geometry": {
        "type": "Point",
        "coordinates": [
          108.703056,
          -7.458611
        ]
      }
    },
    {
      "type": "Feature",
      "properties": {
        "name": "Sidareja",
        "railway": "stop",
        "isCheckpoint": true,
        "role": "stop"
      },
      "geometry": {
        "type": "Point",
        "coordinates": [
          108.792778,
          -7.480833
        ]
      }
    },
    {
      "type": "Feature",
      "properties": {
        "name": "Gandrungmangun",
        "railway": "stop",
        "isCheckpoint": true,
        "role": "stop"
      },
      "geometry": {
        "type": "Point",
        "coordinates": [
          108.845833,
          -7.504167
        ]
      }
    },
    {
      "type": "Feature",
      "properties": {
        "name": "Kawunganten",
        "railway": "stop",
        "isCheckpoint": true,
        "role": "stop"
      },
      "geometry": {
        "type": "Point",
        "coordinates": [
          108.9125,
          -7.523333
        ]
      }
    },
    {
      "type": "Feature",
      "properties": {
        "name": "Jeruklegi",
        "railway": "stop",
        "isCheckpoint": true,
        "role": "stop"
      },
      "geometry": {
        "type": "Point",
        "coordinates": [
          109.02,
          -7.579167
        ]
      }
    },
    {
      "type": "Feature",
      "properties": {
        "name": "Lebeng",
        "railway": "stop",
        "isCheckpoint": true,
        "role": "stop"
      },
      "geometry": {
        "type": "Point",
        "coordinates": [
          109.083333,
          -7.6
        ]
      }
    },
    {
      "type": "Feature",
      "properties": {
        "name": "Kasugihan",
        "railway": "stop",
        "isCheckpoint": true,
        "role": "stop"
      },
      "geometry": {
        "type": "Point",
        "coordinates": [
          109.15,
          -7.62
        ]
      }
    },
    {
      "type": "Feature",
      "properties": {
        "name": "Maos",
        "railway": "stop",
        "isCheckpoint": true,
        "role": "stop"
      },
      "geometry": {
        "type": "Point",
        "coordinates": [
          109.186667,
          -7.633056
        ]
      }
    },
    {
      "type": "Feature",
      "properties": {
        "name": "Sikampuh",
        "railway": "stop",
        "isCheckpoint": true,
        "role": "stop"
      },
      "geometry": {
        "type": "Point",
        "coordinates": [
          109.215,
          -7.64
        ]
      }
    },
    {
      "type": "Feature",
      "properties": {
        "name": "Kroya",
        "railway": "stop",
        "isCheckpoint": true,
        "role": "stop"
      },
      "geometry": {
        "type": "Point",
        "coordinates": [
          109.246111,
          -7.633056
        ]
      }
    },
    {
      "type": "Feature",
      "properties": {
        "name": "Kemranjen",
        "railway": "stop",
        "isCheckpoint": true,
        "role": "stop"
      },
      "geometry": {
        "type": "Point",
        "coordinates": [
          109.3075,
          -7.665278
        ]
      }
    },
    {
      "type": "Feature",
      "properties": {
        "name": "Sumpiuh",
        "railway": "stop",
        "isCheckpoint": true,
        "role": "stop"
      },
      "geometry": {
        "type": "Point",
        "coordinates": [
          109.364444,
          -7.690278
        ]
      }
    },
    {
      "type": "Feature",
      "properties": {
        "name": "Tambak",
        "railway": "stop",
        "isCheckpoint": true,
        "role": "stop"
      },
      "geometry": {
        "type": "Point",
        "coordinates": [
          109.402222,
          -7.705556
        ]
      }
    },
    {
      "type": "Feature",
      "properties": {
        "name": "Ijo",
        "railway": "stop",
        "isCheckpoint": true,
        "role": "stop"
      },
      "geometry": {
        "type": "Point",
        "coordinates": [
          109.44,
          -7.72
        ]
      }
    },
    {
      "type": "Feature",
      "properties": {
        "name": "Gombong",
        "railway": "stop",
        "isCheckpoint": true,
        "role": "stop"
      },
      "geometry": {
        "type": "Point",
        "coordinates": [
          109.514444,
          -7.728889
        ]
      }
    },
    {
      "type": "Feature",
      "properties": {
        "name": "Karanganyar",
        "railway": "stop",
        "isCheckpoint": true,
        "role": "stop"
      },
      "geometry": {
        "type": "Point",
        "coordinates": [
          109.58,
          -7.75
        ]
      }
    },
    {
      "type": "Feature",
      "properties": {
        "name": "Sruweng",
        "railway": "stop",
        "isCheckpoint": true,
        "role": "stop"
      },
      "geometry": {
        "type": "Point",
        "coordinates": [
          109.64,
          -7.77
        ]
      }
    },
    {
      "type": "Feature",
      "properties": {
        "name": "Kebumen",
        "railway": "stop",
        "isCheckpoint": true,
        "role": "stop"
      },
      "geometry": {
        "type": "Point",
        "coordinates": [
          109.653889,
          -7.678611
        ]
      }
    },
    {
      "type": "Feature",
      "properties": {
        "name": "Wonosari",
        "railway": "stop",
        "isCheckpoint": true,
        "role": "stop"
      },
      "geometry": {
        "type": "Point",
        "coordinates": [
          109.7,
          -7.7
        ]
      }
    },
    {
      "type": "Feature",
      "properties": {
        "name": "Kutowinangun",
        "railway": "stop",
        "isCheckpoint": true,
        "role": "stop"
      },
      "geometry": {
        "type": "Point",
        "coordinates": [
          109.77,
          -7.72
        ]
      }
    },
    {
      "type": "Feature",
      "properties": {
        "name": "Prembun",
        "railway": "stop",
        "isCheckpoint": true,
        "role": "stop"
      },
      "geometry": {
        "type": "Point",
        "coordinates": [
          109.8,
          -7.73
        ]
      }
    },
    {
      "type": "Feature",
      "properties": {
        "name": "Butuh",
        "railway": "stop",
        "isCheckpoint": true,
        "role": "stop"
      },
      "geometry": {
        "type": "Point",
        "coordinates": [
          109.84,
          -7.735
        ]
      }
    },
    {
      "type": "Feature",
      "properties": {
        "name": "Kutoarjo",
        "railway": "stop",
        "isCheckpoint": true,
        "role": "stop"
      },
      "geometry": {
        "type": "Point",
        "coordinates": [
          109.907222,
          -7.718333
        ]
      }
    },
    {
      "type": "Feature",
      "properties": {
        "name": "Yogyakarta",
        "railway": "stop",
        "isCheckpoint": true,
        "role": "stop"
      },
      "geometry": {
        "type": "Point",
        "coordinates": [
          110.363889,
          -7.789167
        ]
      }
    },
    {
      "type": "Feature",
      "properties": {
        "name": "Solo Balapan",
        "railway": "stop",
        "isCheckpoint": true,
        "role": "stop"
      },
      "geometry": {
        "type": "Point",
        "coordinates": [
          110.821667,
          -7.556111
        ]
      }
    },
    {
      "type": "Feature",
      "properties": {
        "name": "Madiun",
        "railway": "stop",
        "isCheckpoint": true,
        "role": "stop"
      },
      "geometry": {
        "type": "Point",
        "coordinates": [
          111.523889,
          -7.618889
        ]
      }
    },
    {
      "type": "Feature",
      "properties": {
        "name": "Kediri",
        "railway": "stop",
        "isCheckpoint": true,
        "role": "stop"
      },
      "geometry": {
        "type": "Point",
        "coordinates": [
          112.016667,
          -7.816667
        ]
      }
    },
    {
      "type": "Feature",
      "properties": {
        "name": "Blitar",
        "railway": "stop",
        "isCheckpoint": true,
        "role": "stop"
      },
      "geometry": {
        "type": "Point",
        "coordinates": [
          112.164444,
          -8.095556
        ]
      }
    },
    {
      "type": "Feature",
      "properties": {
        "name": "Kepanjen",
        "railway": "stop",
        "isCheckpoint": true,
        "role": "stop"
      },
      "geometry": {
        "type": "Point",
        "coordinates": [
          112.573889,
          -8.135278
        ]
      }
    },
    {
      "type": "Feature",
      "properties": {
        "name": "Malang Kotalama",
        "railway": "stop",
        "isCheckpoint": true,
        "role": "stop"
      },
      "geometry": {
        "type": "Point",
        "coordinates": [
          112.626944,
          -7.981667
        ]
      }
    },
    {
      "type": "Feature",
      "properties": {
        "name": "Malang",
        "railway": "stop",
        "isCheckpoint": true,
        "role": "stop",
        "is_origin_ka67": true,
        "is_origin_ka69": true
      },
      "geometry": {
        "type": "Point",
        "coordinates": [
          112.632632,
          -7.96662
        ]
      }
    }
  ]
}