{
  "type": "FeatureCollection",
  "name": "MALABAR_GO",
  "features": [
    {
      "type": "Feature",
      "properties": {
        "name": "MALABAR"
      },
      "geometry": {
        "type": "LineString",
        "coordinates": [
          [
            112.63263,
            -7.96662
          ],
          [
            112.626945,
            -7.981667
          ],
          [
            112.57389,
            -8.135278
          ],
          [
            112.164444,
            -8.095556
          ],
          [
            112.0158,
            -8.1151
          ],
          [
            111.9658,
            -8.0951
          ],
          [
            111.9056,
            -8.0583
          ],
          [
            111.9158,
            -8.0151
          ],
          [
            111.9558,
            -7.9451
          ],
          [
            111.9858,
            -7.8951
          ],
          [
            112.0167,
            -7.8167
          ],
          [
            112.0358,
            -7.7651
          ],
          [
            112.0658,
            -7.7151
          ],
          [
            112.0858,
            -7.6751
          ],
          [
            112.0958,
            -7.6151
          ],
          [
            112.0917,
            -7.5917
          ],
          [
            112.0458,
            -7.5651
          ],
          [
            111.9558,
            -7.5851
          ],
          [
            111.9017,
            -7.6017
          ],
          [
            111.8358,
            -7.5851
          ],
          [
            111.7558,
            -7.5551
          ],
          [
            111.6558,
            -7.5551
          ],
          [
            111.5858,
            -7.5751
          ],
          [
            111.52389,
            -7.618889
          ],
          [
            111.5158,
            -7.5251
          ],
          [
            111.4422,
            -7.4561
          ],
          [
            111.3855,
            -7.4024
          ],
          [
            111.2758,
            -7.4081
          ],
          [
            111.1275,
            -7.3916
          ],
          [
            111.0258,
            -7.3751
          ],
          [
            110.9583,
            -7.3621
          ],
          [
            110.9383,
            -7.4297
          ],
          [
            110.8758,
            -7.4581
          ],
          [
            110.8158,
            -7.4851
          ],
          [
            110.8658,
            -7.5644
          ],
          [
            110.8358,
            -7.5614
          ],
          [
            110.82167,
            -7.556111
          ],
          [
            110.8014,
            -7.5678
          ],
          [
            110.7458,
            -7.6151
          ],
          [
            110.6658,
            -7.6751
          ],
          [
            110.6033,
            -7.7122
          ],
          [
            110.5458,
            -7.7451
          ],
          [
            110.4958,
            -7.7551
          ],
          [
            110.4358,
            -7.7851
          ],
          [
            110.37556,
            -7.790278
          ],
          [
            110.36361,
            -7.789167
          ],
          [
            110.32528,
            -7.788333
          ],
          [
            110.29139,
            -7.792778
          ],
          [
            110.157776,
            -7.859444
          ],
          [
            110.11417,
            -7.876111
          ],
          [
            110.060555,
            -7.888333
          ],
          [
            109.98,
            -7.895556
          ],
          [
            109.90722,
            -7.718333
          ],
          [
            109.84,
            -7.735
          ],
          [
            109.8,
            -7.73
          ],
          [
            109.77,
            -7.72
          ],
          [
            109.7,
            -7.7
          ],
          [
            109.65389,
            -7.678611
          ],
          [
            109.64,
            -7.77
          ],
          [
            109.58,
            -7.75
          ],
          [
            109.51444,
            -7.728889
          ],
          [
            109.44,
            -7.72
          ],
          [
            109.40222,
            -7.705556
          ],
          [
            109.36444,
            -7.690278
          ],
          [
            109.3075,
            -7.665278
          ],
          [
            109.24611,
            -7.633056
          ],
          [
            109.215,
            -7.64
          ],
          [
            109.18667,
            -7.633056
          ],
          [
            109.15,
            -7.62
          ],
          [
            109.083336,
            -7.6
          ],
          [
            109.02,
            -7.579167
          ],
          [
            108.9125,
            -7.523333
          ],
          [
            108.84583,
            -7.504167
          ],
          [
            108.79278,
            -7.480833
          ],
          [
            108.70306,
            -7.458611
          ],
          [
            108.64056,
            -7.43
          ],
          [
            108.58583,
            -7.400278
          ],
          [
            108.53333,
            -7.366667
          ],
          [
            108.44833,
            -7.351667
          ],
          [
            108.40111,
            -7.339722
          ],
          [
            108.35399,
            -7.325873
          ],
          [
            108.28778,
            -7.351111
          ],
          [
            108.25278,
            -7.339167
          ],
          [
            108.22091,
            -7.327466
          ],
          [
            108.22972,
            -7.325833
          ],
          [
            108.21333,
            -7.323611
          ],
          [
            108.18694,
            -7.316944
          ],
          [
            108.14778,
            -7.308056
          ],
          [
            108.103615,
            -7.3
          ],
          [
            108.060555,
            -7.275278
          ],
          [
            108.01639,
            -7.245278
          ],
          [
            107.98361,
            -7.221389
          ],
          [
            107.93806,
            -7.180833
          ],
          [
            107.90417,
            -7.143056
          ],
          [
            107.9025,
            -7.115278
          ],
          [
            107.941666,
            -7.0575
          ],
          [
            107.88639,
            -7.019722
          ],
          [
            107.82917,
            -6.998056
          ],
          [
            107.781944,
            -6.987222
          ],
          [
            107.76056,
            -6.973611
          ],
          [
            107.720276,
            -6.966389
          ],
          [
            107.69861,
            -6.949722
          ],
          [
            107.64142,
            -6.925393
          ],
          [
            107.623055,
            -6.923889
          ],
          [
            107.60241,
            -6.914744
          ]
        ]
      }
    },
    {
      "type": "Feature",
      "properties": {
        "name": "Malang",
        "stop_status": "STOP",
        "notes": "",
        "schedule_ka67": "16:50:00",
        "schedule_ka68": "06:51:59",
        "schedule_ka69": "05:24:59",
        "schedule_ka70": "22:36:00"
      },
      "geometry": {
        "type": "Point",
        "coordinates": [
          112.63263,
          -7.96662
        ]
      }
    },
    {
      "type": "Feature",
      "properties": {
        "name": "Malang Kotalama",
        "stop_status": "STOP",
        "notes": "(KA 296 X)",
        "schedule_ka67": "16:56:00",
        "schedule_ka68": "06:44:00",
        "schedule_ka69": "05:30:59",
        "schedule_ka70": "22:23:59"
      },
      "geometry": {
        "type": "Point",
        "coordinates": [
          112.626945,
          -7.981667
        ]
      }
    },
    {
      "type": "Feature",
      "properties": {
        "name": "Kepanjen",
        "stop_status": "STOP",
        "notes": "",
        "schedule_ka67": "17:19:00",
        "schedule_ka68": "06:20:59",
        "schedule_ka69": "05:53:00",
        "schedule_ka70": "22:00:59"
      },
      "geometry": {
        "type": "Point",
        "coordinates": [
          112.57389,
          -8.135278
        ]
      }
    },
    {
      "type": "Feature",
      "properties": {
        "name": "Blitar",
        "stop_status": "STOP",
        "notes": "",
        "schedule_ka67": "18:26:00",
        "schedule_ka68": "05:08:59",
        "schedule_ka69": "07:18:59",
        "schedule_ka70": "20:55:59"
      },
      "geometry": {
        "type": "Point",
        "coordinates": [
          112.164444,
          -8.095556
        ]
      }
    },
    {
      "type": "Feature",
      "properties": {
        "name": "Ngunut",
        "stop_status": "STOP",
        "notes": "// KA 301 (KA 301 =)",
        "schedule_ka67": "18:42:00",
        "schedule_ka68": "04:54:59",
        "schedule_ka69": "07:34:59",
        "schedule_ka70": "20:42:59"
      },
      "geometry": {
        "type": "Point",
        "coordinates": [
          112.0158,
          -8.1151
        ]
      }
    },
    {
      "type": "Feature",
      "properties": {
        "name": "Sumbergempol",
        "stop_status": "STOP",
        "notes": "",
        "schedule_ka67": "18:45:59",
        "schedule_ka68": "04:50:59",
        "schedule_ka69": "07:39:00",
        "schedule_ka70": "20:39:00"
      },
      "geometry": {
        "type": "Point",
        "coordinates": [
          111.9658,
          -8.0951
        ]
      }
    },
    {
      "type": "Feature",
      "properties": {
        "name": "Tulungagung",
        "stop_status": "STOP",
        "notes": "",
        "schedule_ka67": "18:49:59",
        "schedule_ka68": "04:43:59",
        "schedule_ka69": "07:43:59",
        "schedule_ka70": "20:30:59"
      },
      "geometry": {
        "type": "Point",
        "coordinates": [
          111.9056,
          -8.0583
        ]
      }
    },
    {
      "type": "Feature",
      "properties": {
        "name": "Ngujang",
        "stop_status": "STOP",
        "notes": "",
        "schedule_ka67": "18:58:00",
        "schedule_ka68": "04:38:00",
        "schedule_ka69": "07:52:00",
        "schedule_ka70": "20:24:59"
      },
      "geometry": {
        "type": "Point",
        "coordinates": [
          111.9158,
          -8.0151
        ]
      }
    },
    {
      "type": "Feature",
      "properties": {
        "name": "Kras",
        "stop_status": "STOP",
        "notes": "",
        "schedule_ka67": "19:02:00",
        "schedule_ka68": "04:34:00",
        "schedule_ka69": "07:56:00",
        "schedule_ka70": "20:21:00"
      },
      "geometry": {
        "type": "Point",
        "coordinates": [
          111.9558,
          -7.9451
        ]
      }
    },
    {
      "type": "Feature",
      "properties": {
        "name": "Ngadiluwih",
        "stop_status": "STOP",
        "notes": "X KA 408 (KA 408 X) // KA 429 (KA 429 =)",
        "schedule_ka67": "19:05:59",
        "schedule_ka68": "04:30:00",
        "schedule_ka69": "07:59:59",
        "schedule_ka70": "20:17:00"
      },
      "geometry": {
        "type": "Point",
        "coordinates": [
          111.9858,
          -7.8951
        ]
      }
    },
    {
      "type": "Feature",
      "properties": {
        "name": "Kediri",
        "stop_status": "STOP",
        "notes": "",
        "schedule_ka67": "19:12:00",
        "schedule_ka68": "04:20:00",
        "schedule_ka69": "08:06:59",
        "schedule_ka70": "20:03:59"
      },
      "geometry": {
        "type": "Point",
        "coordinates": [
          112.0167,
          -7.8167
        ]
      }
    },
    {
      "type": "Feature",
      "properties": {
        "name": "Susuhan",
        "stop_status": "STOP",
        "notes": "",
        "schedule_ka67": "19:18:59",
        "schedule_ka68": "04:14:59",
        "schedule_ka69": "08:14:00",
        "schedule_ka70": "19:59:00"
      },
      "geometry": {
        "type": "Point",
        "coordinates": [
          112.0358,
          -7.7651
        ]
      }
    },
    {
      "type": "Feature",
      "properties": {
        "name": "Minggiran",
        "stop_status": "STOP",
        "notes": "",
        "schedule_ka67": "19:21:59",
        "schedule_ka68": "04:12:00",
        "schedule_ka69": "08:17:00",
        "schedule_ka70": "19:56:00"
      },
      "geometry": {
        "type": "Point",
        "coordinates": [
          112.0658,
          -7.7151
        ]
      }
    },
    {
      "type": "Feature",
      "properties": {
        "name": "Papar",
        "stop_status": "STOP",
        "notes": "",
        "schedule_ka67": "19:25:00",
        "schedule_ka68": "04:09:00",
        "schedule_ka69": "08:19:59",
        "schedule_ka70": "19:52:59"
      },
      "geometry": {
        "type": "Point",
        "coordinates": [
          112.0858,
          -7.6751
        ]
      }
    },
    {
      "type": "Feature",
      "properties": {
        "name": "Purwoasri",
        "stop_status": "STOP",
        "notes": "",
        "schedule_ka67": "19:27:59",
        "schedule_ka68": "04:05:59",
        "schedule_ka69": "08:24:00",
        "schedule_ka70": "19:48:59"
      },
      "geometry": {
        "type": "Point",
        "coordinates": [
          112.0958,
          -7.6151
        ]
      }
    },
    {
      "type": "Feature",
      "properties": {
        "name": "Kertosono",
        "stop_status": "STOP",
        "notes": "",
        "schedule_ka67": "19:34:00",
        "schedule_ka68": "03:56:00",
        "schedule_ka69": "08:30:00",
        "schedule_ka70": "19:39:59"
      },
      "geometry": {
        "type": "Point",
        "coordinates": [
          112.0917,
          -7.5917
        ]
      }
    },
    {
      "type": "Feature",
      "properties": {
        "name": "Baron",
        "stop_status": "STOP",
        "notes": "",
        "schedule_ka67": "19:41:59",
        "schedule_ka68": "03:49:59",
        "schedule_ka69": "08:39:00",
        "schedule_ka70": "19:32:59"
      },
      "geometry": {
        "type": "Point",
        "coordinates": [
          112.0458,
          -7.5651
        ]
      }
    },
    {
      "type": "Feature",
      "properties": {
        "name": "Sukomoro",
        "stop_status": "STOP",
        "notes": "",
        "schedule_ka67": "19:48:59",
        "schedule_ka68": "03:44:00",
        "schedule_ka69": "08:44:59",
        "schedule_ka70": "19:25:59"
      },
      "geometry": {
        "type": "Point",
        "coordinates": [
          111.9558,
          -7.5851
        ]
      }
    },
    {
      "type": "Feature",
      "properties": {
        "name": "Nganjuk",
        "stop_status": "STOP",
        "notes": "",
        "schedule_ka67": "19:54:00",
        "schedule_ka68": "03:36:59",
        "schedule_ka69": "08:50:00",
        "schedule_ka70": "19:18:59"
      },
      "geometry": {
        "type": "Point",
        "coordinates": [
          111.9017,
          -7.6017
        ]
      }
    },
    {
      "type": "Feature",
      "properties": {
        "name": "Bagor",
        "stop_status": "STOP",
        "notes": "",
        "schedule_ka67": "20:01:59",
        "schedule_ka68": "03:31:00",
        "schedule_ka69": "08:57:59",
        "schedule_ka70": "19:12:59"
      },
      "geometry": {
        "type": "Point",
        "coordinates": [
          111.8358,
          -7.5851
        ]
      }
    },
    {
      "type": "Feature",
      "properties": {
        "name": "Saradan",
        "stop_status": "STOP",
        "notes": "",
        "schedule_ka67": "20:12:00",
        "schedule_ka68": "03:20:59",
        "schedule_ka69": "09:08:00",
        "schedule_ka70": "19:02:00"
      },
      "geometry": {
        "type": "Point",
        "coordinates": [
          111.7558,
          -7.5551
        ]
      }
    },
    {
      "type": "Feature",
      "properties": {
        "name": "Caruban",
        "stop_status": "STOP",
        "notes": "// KA 273 (KA 273 =)",
        "schedule_ka67": "20:17:00",
        "schedule_ka68": "03:15:59",
        "schedule_ka69": "09:13:00",
        "schedule_ka70": "18:56:00"
      },
      "geometry": {
        "type": "Point",
        "coordinates": [
          111.6558,
          -7.5551
        ]
      }
    },
    {
      "type": "Feature",
      "properties": {
        "name": "Babadan",
        "stop_status": "STOP",
        "notes": "",
        "schedule_ka67": "20:23:00",
        "schedule_ka68": "03:11:00",
        "schedule_ka69": "09:18:00",
        "schedule_ka70": "18:51:00"
      },
      "geometry": {
        "type": "Point",
        "coordinates": [
          111.5858,
          -7.5751
        ]
      }
    },
    {
      "type": "Feature",
      "properties": {
        "name": "Madiun",
        "stop_status": "STOP",
        "notes": "",
        "schedule_ka67": "20:28:59",
        "schedule_ka68": "03:00:00",
        "schedule_ka69": "09:24:00",
        "schedule_ka70": "18:38:59"
      },
      "geometry": {
        "type": "Point",
        "coordinates": [
          111.52389,
          -7.618889
        ]
      }
    },
    {
      "type": "Feature",
      "properties": {
        "name": "Magetan",
        "stop_status": "STOP",
        "notes": "",
        "schedule_ka67": "20:42:59",
        "schedule_ka68": "02:51:59",
        "schedule_ka69": "09:36:59",
        "schedule_ka70": "18:29:59"
      },
      "geometry": {
        "type": "Point",
        "coordinates": [
          111.5158,
          -7.5251
        ]
      }
    },
    {
      "type": "Feature",
      "properties": {
        "name": "Geneng",
        "stop_status": "STOP",
        "notes": "",
        "schedule_ka67": "20:48:00",
        "schedule_ka68": "02:46:00",
        "schedule_ka69": "09:42:00",
        "schedule_ka70": "18:24:00"
      },
      "geometry": {
        "type": "Point",
        "coordinates": [
          111.4422,
          -7.4561
        ]
      }
    },
    {
      "type": "Feature",
      "properties": {
        "name": "Ngawi",
        "stop_status": "STOP",
        "notes": "",
        "schedule_ka67": "20:53:59",
        "schedule_ka68": "02:37:59",
        "schedule_ka69": "09:47:59",
        "schedule_ka70": "18:15:59"
      },
      "geometry": {
        "type": "Point",
        "coordinates": [
          111.3855,
          -7.4024
        ]
      }
    },
    {
      "type": "Feature",
      "properties": {
        "name": "Kedunggalar",
        "stop_status": "STOP",
        "notes": "",
        "schedule_ka67": "21:04:00",
        "schedule_ka68": "02:30:59",
        "schedule_ka69": "09:56:00",
        "schedule_ka70": "18:09:00"
      },
      "geometry": {
        "type": "Point",
        "coordinates": [
          111.2758,
          -7.4081
        ]
      }
    },
    {
      "type": "Feature",
      "properties": {
        "name": "Walikukun",
        "stop_status": "STOP",
        "notes": "",
        "schedule_ka67": "21:09:59",
        "schedule_ka68": "02:26:00",
        "schedule_ka69": "10:03:00",
        "schedule_ka70": "18:04:00"
      },
      "geometry": {
        "type": "Point",
        "coordinates": [
          111.1275,
          -7.3916
        ]
      }
    },
    {
      "type": "Feature",
      "properties": {
        "name": "Kedungbanteng",
        "stop_status": "STOP",
        "notes": "",
        "schedule_ka67": "21:18:00",
        "schedule_ka68": "02:17:59",
        "schedule_ka69": "10:09:59",
        "schedule_ka70": "17:55:59"
      },
      "geometry": {
        "type": "Point",
        "coordinates": [
          111.0258,
          -7.3751
        ]
      }
    },
    {
      "type": "Feature",
      "properties": {
        "name": "Kebonromo",
        "stop_status": "STOP",
        "notes": "",
        "schedule_ka67": "21:22:00",
        "schedule_ka68": "02:14:00",
        "schedule_ka69": "10:12:59",
        "schedule_ka70": "17:51:59"
      },
      "geometry": {
        "type": "Point",
        "coordinates": [
          110.9583,
          -7.3621
        ]
      }
    },
    {
      "type": "Feature",
      "properties": {
        "name": "Sragen",
        "stop_status": "STOP",
        "notes": "",
        "schedule_ka67": "21:27:00",
        "schedule_ka68": "02:06:00",
        "schedule_ka69": "10:18:00",
        "schedule_ka70": "17:44:59"
      },
      "geometry": {
        "type": "Point",
        "coordinates": [
          110.9383,
          -7.4297
        ]
      }
    },
    {
      "type": "Feature",
      "properties": {
        "name": "Masaran",
        "stop_status": "STOP",
        "notes": "",
        "schedule_ka67": "21:36:00",
        "schedule_ka68": "01:59:00",
        "schedule_ka69": "10:27:00",
        "schedule_ka70": "17:37:00"
      },
      "geometry": {
        "type": "Point",
        "coordinates": [
          110.8758,
          -7.4581
        ]
      }
    },
    {
      "type": "Feature",
      "properties": {
        "name": "Kemiri",
        "stop_status": "STOP",
        "notes": "",
        "schedule_ka67": "21:40:59",
        "schedule_ka68": "01:54:00",
        "schedule_ka69": "10:32:00",
        "schedule_ka70": "17:32:00"
      },
      "geometry": {
        "type": "Point",
        "coordinates": [
          110.8158,
          -7.4851
        ]
      }
    },
    {
      "type": "Feature",
      "properties": {
        "name": "Palur",
        "stop_status": "STOP",
        "notes": "",
        "schedule_ka67": "21:44:00",
        "schedule_ka68": "01:50:59",
        "schedule_ka69": "10:34:59",
        "schedule_ka70": "17:28:59"
      },
      "geometry": {
        "type": "Point",
        "coordinates": [
          110.8658,
          -7.5644
        ]
      }
    },
    {
      "type": "Feature",
      "properties": {
        "name": "Solo Jebres",
        "stop_status": "STOP",
        "notes": "",
        "schedule_ka67": "21:47:00",
        "schedule_ka68": "01:48:00",
        "schedule_ka69": "10:38:00",
        "schedule_ka70": "17:26:00"
      },
      "geometry": {
        "type": "Point",
        "coordinates": [
          110.8358,
          -7.5614
        ]
      }
    },
    {
      "type": "Feature",
      "properties": {
        "name": "Solo Balapan",
        "stop_status": "STOP",
        "notes": "",
        "schedule_ka67": "21:51:00",
        "schedule_ka68": "01:41:00",
        "schedule_ka69": "10:41:59",
        "schedule_ka70": "17:19:00"
      },
      "geometry": {
        "type": "Point",
        "coordinates": [
          110.82167,
          -7.556111
        ]
      }
    },
    {
      "type": "Feature",
      "properties": {
        "name": "Purwosari",
        "stop_status": "STOP",
        "notes": "",
        "schedule_ka67": "21:58:00",
        "schedule_ka68": "01:36:59",
        "schedule_ka69": "10:48:59",
        "schedule_ka70": "17:15:00"
      },
      "geometry": {
        "type": "Point",
        "coordinates": [
          110.8014,
          -7.5678
        ]
      }
    },
    {
      "type": "Feature",
      "properties": {
        "name": "Gawok",
        "stop_status": "STOP",
        "notes": "",
        "schedule_ka67": "22:02:00",
        "schedule_ka68": "01:32:59",
        "schedule_ka69": "10:52:59",
        "schedule_ka70": "17:10:59"
      },
      "geometry": {
        "type": "Point",
        "coordinates": [
          110.7458,
          -7.6151
        ]
      }
    },
    {
      "type": "Feature",
      "properties": {
        "name": "Delanggu",
        "stop_status": "STOP",
        "notes": "",
        "schedule_ka67": "22:05:00",
        "schedule_ka68": "01:30:00",
        "schedule_ka69": "10:56:00",
        "schedule_ka70": "17:08:00"
      },
      "geometry": {
        "type": "Point",
        "coordinates": [
          110.7058,
          -7.6451
        ]
      }
    },
    {
      "type": "Feature",
      "properties": {
        "name": "Ceper",
        "stop_status": "STOP",
        "notes": "",
        "schedule_ka67": "22:09:00",
        "schedule_ka68": "01:25:59",
        "schedule_ka69": "10:59:59",
        "schedule_ka70": "17:03:59"
      },
      "geometry": {
        "type": "Point",
        "coordinates": [
          110.6658,
          -7.6751
        ]
      }
    },
    {
      "type": "Feature",
      "properties": {
        "name": "Klaten",
        "stop_status": "STOP",
        "notes": "",
        "schedule_ka67": "22:14:59",
        "schedule_ka68": "01:16:59",
        "schedule_ka69": "11:05:00",
        "schedule_ka70": "16:54:59"
      },
      "geometry": {
        "type": "Point",
        "coordinates": [
          110.6033,
          -7.7122
        ]
      }
    },
    {
      "type": "Feature",
      "properties": {
        "name": "Srowot",
        "stop_status": "STOP",
        "notes": "",
        "schedule_ka67": "22:18:59",
        "schedule_ka68": "01:12:00",
        "schedule_ka69": "11:08:59",
        "schedule_ka70": "16:50:00"
      },
      "geometry": {
        "type": "Point",
        "coordinates": [
          110.5458,
          -7.7451
        ]
      }
    },
    {
      "type": "Feature",
      "properties": {
        "name": "Brambanan",
        "stop_status": "STOP",
        "notes": "",
        "schedule_ka67": "22:23:00",
        "schedule_ka68": "01:07:59",
        "schedule_ka69": "11:12:59",
        "schedule_ka70": "16:46:29"
      },
      "geometry": {
        "type": "Point",
        "coordinates": [
          110.4958,
          -7.7551
        ]
      }
    },
    {
      "type": "Feature",
      "properties": {
        "name": "Maguwo",
        "stop_status": "STOP",
        "notes": "",
        "schedule_ka67": "22:27:59",
        "schedule_ka68": "01:03:00",
        "schedule_ka69": "11:17:59",
        "schedule_ka70": "16:41:59"
      },
      "geometry": {
        "type": "Point",
        "coordinates": [
          110.4358,
          -7.7851
        ]
      }
    },
    {
      "type": "Feature",
      "properties": {
        "name": "Lempuyangan",
        "stop_status": "STOP",
        "notes": "",
        "schedule_ka67": "22:32:00",
        "schedule_ka68": "00:58:59",
        "schedule_ka69": "11:23:00",
        "schedule_ka70": "16:38:00"
      },
      "geometry": {
        "type": "Point",
        "coordinates": [
          110.37556,
          -7.790278
        ]
      }
    },
    {
      "type": "Feature",
      "properties": {
        "name": "Yogyakarta",
        "stop_status": "STOP",
        "notes": "",
        "schedule_ka67": "22:36:00",
        "schedule_ka68": "00:51:00",
        "schedule_ka69": "11:26:00",
        "schedule_ka70": "16:30:00"
      },
      "geometry": {
        "type": "Point",
        "coordinates": [
          110.36361,
          -7.789167
        ]
      }
    },
    {
      "type": "Feature",
      "properties": {
        "name": "Patukan",
        "stop_status": "STOP",
        "notes": "",
        "schedule_ka67": "22:45:59",
        "schedule_ka68": "00:45:59",
        "schedule_ka69": "11:35:59",
        "schedule_ka70": "16:25:00"
      },
      "geometry": {
        "type": "Point",
        "coordinates": [
          110.32528,
          -7.788333
        ]
      }
    },
    {
      "type": "Feature",
      "properties": {
        "name": "Rewulu",
        "stop_status": "STOP",
        "notes": "",
        "schedule_ka67": "22:48:59",
        "schedule_ka68": "00:42:59",
        "schedule_ka69": "11:39:00",
        "schedule_ka70": "16:21:59"
      },
      "geometry": {
        "type": "Point",
        "coordinates": [
          110.29139,
          -7.792778
        ]
      }
    },
    {
      "type": "Feature",
      "properties": {
        "name": "Sentolo",
        "stop_status": "STOP",
        "notes": "",
        "schedule_ka67": "22:56:00",
        "schedule_ka68": "00:36:00",
        "schedule_ka69": "11:46:00",
        "schedule_ka70": "16:14:59"
      },
      "geometry": {
        "type": "Point",
        "coordinates": [
          110.22056,
          -7.828056
        ]
      }
    },
    {
      "type": "Feature",
      "properties": {
        "name": "Wates",
        "stop_status": "STOP",
        "notes": "",
        "schedule_ka67": "23:03:59",
        "schedule_ka68": "00:27:59",
        "schedule_ka69": "11:53:59",
        "schedule_ka70": "16:07:00"
      },
      "geometry": {
        "type": "Point",
        "coordinates": [
          110.157776,
          -7.859444
        ]
      }
    },
    {
      "type": "Feature",
      "properties": {
        "name": "Kedundang",
        "stop_status": "STOP",
        "notes": "",
        "schedule_ka67": "23:08:59",
        "schedule_ka68": "00:24:00",
        "schedule_ka69": "11:59:00",
        "schedule_ka70": "16:03:00"
      },
      "geometry": {
        "type": "Point",
        "coordinates": [
          110.11417,
          -7.876111
        ]
      }
    },
    {
      "type": "Feature",
      "properties": {
        "name": "Wojo",
        "stop_status": "STOP",
        "notes": "",
        "schedule_ka67": "23:14:00",
        "schedule_ka68": "00:20:00",
        "schedule_ka69": "12:02:59",
        "schedule_ka70": "15:58:59"
      },
      "geometry": {
        "type": "Point",
        "coordinates": [
          110.060555,
          -7.888333
        ]
      }
    },
    {
      "type": "Feature",
      "properties": {
        "name": "Jenar",
        "stop_status": "STOP",
        "notes": "",
        "schedule_ka67": "23:19:00",
        "schedule_ka68": "00:15:00",
        "schedule_ka69": "12:08:00",
        "schedule_ka70": "15:54:00"
      },
      "geometry": {
        "type": "Point",
        "coordinates": [
          109.98,
          -7.895556
        ]
      }
    },
    {
      "type": "Feature",
      "properties": {
        "name": "Kutoarjo",
        "stop_status": "STOP",
        "notes": "",
        "schedule_ka67": "23:28:59",
        "schedule_ka68": "00:02:59",
        "schedule_ka69": "12:18:00",
        "schedule_ka70": "15:42:00"
      },
      "geometry": {
        "type": "Point",
        "coordinates": [
          109.90722,
          -7.718333
        ]
      }
    },
    {
      "type": "Feature",
      "properties": {
        "name": "Butuh",
        "stop_status": "STOP",
        "notes": "",
        "schedule_ka67": "23:39:00",
        "schedule_ka68": "23:57:59",
        "schedule_ka69": "12:26:00",
        "schedule_ka70": "15:36:59"
      },
      "geometry": {
        "type": "Point",
        "coordinates": [
          109.84,
          -7.735
        ]
      }
    },
    {
      "type": "Feature",
      "properties": {
        "name": "Prembun",
        "stop_status": "STOP",
        "notes": "",
        "schedule_ka67": "23:42:59",
        "schedule_ka68": "23:53:00",
        "schedule_ka69": "12:29:59",
        "schedule_ka70": "15:33:00"
      },
      "geometry": {
        "type": "Point",
        "coordinates": [
          109.8,
          -7.73
        ]
      }
    },
    {
      "type": "Feature",
      "properties": {
        "name": "Kutowinangun",
        "stop_status": "STOP",
        "notes": "",
        "schedule_ka67": "23:46:59",
        "schedule_ka68": "23:48:59",
        "schedule_ka69": "12:33:59",
        "schedule_ka70": "15:29:00"
      },
      "geometry": {
        "type": "Point",
        "coordinates": [
          109.77,
          -7.72
        ]
      }
    },
    {
      "type": "Feature",
      "properties": {
        "name": "Wonosari",
        "stop_status": "STOP",
        "notes": "",
        "schedule_ka67": "23:48:59",
        "schedule_ka68": "23:46:59",
        "schedule_ka69": "12:36:00",
        "schedule_ka70": "15:27:00"
      },
      "geometry": {
        "type": "Point",
        "coordinates": [
          109.7,
          -7.7
        ]
      }
    },
    {
      "type": "Feature",
      "properties": {
        "name": "Kebumen",
        "stop_status": "STOP",
        "notes": "",
        "schedule_ka67": "23:53:59",
        "schedule_ka68": "23:39:59",
        "schedule_ka69": "12:40:00",
        "schedule_ka70": "15:20:00"
      },
      "geometry": {
        "type": "Point",
        "coordinates": [
          109.65389,
          -7.678611
        ]
      }
    },
    {
      "type": "Feature",
      "properties": {
        "name": "Sruweng",
        "stop_status": "STOP",
        "notes": "",
        "schedule_ka67": "00:02:59",
        "schedule_ka68": "23:33:00",
        "schedule_ka69": "12:49:00",
        "schedule_ka70": "15:11:59"
      },
      "geometry": {
        "type": "Point",
        "coordinates": [
          109.64,
          -7.77
        ]
      }
    },
    {
      "type": "Feature",
      "properties": {
        "name": "Karanganyar",
        "stop_status": "STOP",
        "notes": "",
        "schedule_ka67": "00:04:59",
        "schedule_ka68": "23:30:00",
        "schedule_ka69": "12:51:00",
        "schedule_ka70": "15:09:59"
      },
      "geometry": {
        "type": "Point",
        "coordinates": [
          109.58,
          -7.75
        ]
      }
    },
    {
      "type": "Feature",
      "properties": {
        "name": "Gombong",
        "stop_status": "STOP",
        "notes": "",
        "schedule_ka67": "00:11:59",
        "schedule_ka68": "23:21:00",
        "schedule_ka69": "12:56:00",
        "schedule_ka70": "15:00:59"
      },
      "geometry": {
        "type": "Point",
        "coordinates": [
          109.51444,
          -7.728889
        ]
      }
    },
    {
      "type": "Feature",
      "properties": {
        "name": "Ijo",
        "stop_status": "STOP",
        "notes": "",
        "schedule_ka67": "00:20:59",
        "schedule_ka68": "23:14:00",
        "schedule_ka69": "13:00:00",
        "schedule_ka70": "14:53:59"
      },
      "geometry": {
        "type": "Point",
        "coordinates": [
          109.44,
          -7.72
        ]
      }
    },
    {
      "type": "Feature",
      "properties": {
        "name": "Tambak",
        "stop_status": "STOP",
        "notes": "",
        "schedule_ka67": "00:24:00",
        "schedule_ka68": "23:10:59",
        "schedule_ka69": "13:03:00",
        "schedule_ka70": "14:51:00"
      },
      "geometry": {
        "type": "Point",
        "coordinates": [
          109.40222,
          -7.705556
        ]
      }
    },
    {
      "type": "Feature",
      "properties": {
        "name": "Sumpiuh",
        "stop_status": "STOP",
        "notes": "",
        "schedule_ka67": "00:27:00",
        "schedule_ka68": "23:08:00",
        "schedule_ka69": "13:05:59",
        "schedule_ka70": "14:48:00"
      },
      "geometry": {
        "type": "Point",
        "coordinates": [
          109.36444,
          -7.690278
        ]
      }
    },
    {
      "type": "Feature",
      "properties": {
        "name": "Kemranjen",
        "stop_status": "STOP",
        "notes": "",
        "schedule_ka67": "00:29:59",
        "schedule_ka68": "23:05:00",
        "schedule_ka69": "13:09:00",
        "schedule_ka70": "14:44:59"
      },
      "geometry": {
        "type": "Point",
        "coordinates": [
          109.3075,
          -7.665278
        ]
      }
    },
    {
      "type": "Feature",
      "properties": {
        "name": "Kroya",
        "stop_status": "STOP",
        "notes": "X KA 72",
        "schedule_ka67": "00:36:59",
        "schedule_ka68": "22:56:00",
        "schedule_ka69": "13:16:00",
        "schedule_ka70": "14:35:59"
      },
      "geometry": {
        "type": "Point",
        "coordinates": [
          109.24611,
          -7.633056
        ]
      }
    },
    {
      "type": "Feature",
      "properties": {
        "name": "Sikampuh",
        "stop_status": "STOP",
        "notes": "",
        "schedule_ka67": "00:49:00",
        "schedule_ka68": "22:50:00",
        "schedule_ka69": "13:25:00",
        "schedule_ka70": "14:30:00"
      },
      "geometry": {
        "type": "Point",
        "coordinates": [
          109.215,
          -7.64
        ]
      }
    },
    {
      "type": "Feature",
      "properties": {
        "name": "Maos",
        "stop_status": "STOP",
        "notes": "X KA 2750FF JJ (KA 2750F X)",
        "schedule_ka67": "00:54:00",
        "schedule_ka68": "22:41:59",
        "schedule_ka69": "13:29:00",
        "schedule_ka70": "14:21:59"
      },
      "geometry": {
        "type": "Point",
        "coordinates": [
          109.18667,
          -7.633056
        ]
      }
    },
    {
      "type": "Feature",
      "properties": {
        "name": "Kasugihan",
        "stop_status": "STOP",
        "notes": "",
        "schedule_ka67": "01:00:00",
        "schedule_ka68": "22:39:00",
        "schedule_ka69": "13:30:00",
        "schedule_ka70": "14:19:00"
      },
      "geometry": {
        "type": "Point",
        "coordinates": [
          109.15,
          -7.62
        ]
      }
    },
    {
      "type": "Feature",
      "properties": {
        "name": "Lebeng",
        "stop_status": "STOP",
        "notes": "",
        "schedule_ka67": "01:03:00",
        "schedule_ka68": "22:36:00",
        "schedule_ka69": "13:32:59",
        "schedule_ka70": "14:15:59"
      },
      "geometry": {
        "type": "Point",
        "coordinates": [
          109.083336,
          -7.6
        ]
      }
    },
    {
      "type": "Feature",
      "properties": {
        "name": "Jeruklegi",
        "stop_status": "STOP",
        "notes": "",
        "schedule_ka67": "01:07:00",
        "schedule_ka68": "22:32:00",
        "schedule_ka69": "13:36:59",
        "schedule_ka70": "14:03:00"
      },
      "geometry": {
        "type": "Point",
        "coordinates": [
          109.02,
          -7.579167
        ]
      }
    },
    {
      "type": "Feature",
      "properties": {
        "name": "Kawunganten",
        "stop_status": "STOP",
        "notes": "",
        "schedule_ka67": "01:18:00",
        "schedule_ka68": "22:21:00",
        "schedule_ka69": "13:48:00",
        "schedule_ka70": "13:41:00"
      },
      "geometry": {
        "type": "Point",
        "coordinates": [
          108.9125,
          -7.523333
        ]
      }
    },
    {
      "type": "Feature",
      "properties": {
        "name": "Gandrungmangun",
        "stop_status": "STOP",
        "notes": "X KA 292 (KA 292 X)",
        "schedule_ka67": "01:23:59",
        "schedule_ka68": "22:16:00",
        "schedule_ka69": "13:52:59",
        "schedule_ka70": "13:34:00"
      },
      "geometry": {
        "type": "Point",
        "coordinates": [
          108.84583,
          -7.504167
        ]
      }
    },
    {
      "type": "Feature",
      "properties": {
        "name": "Sidareja",
        "stop_status": "STOP",
        "notes": "",
        "schedule_ka67": "01:30:59",
        "schedule_ka68": "22:07:59",
        "schedule_ka69": "13:59:00",
        "schedule_ka70": "13:25:00"
      },
      "geometry": {
        "type": "Point",
        "coordinates": [
          108.79278,
          -7.480833
        ]
      }
    },
    {
      "type": "Feature",
      "properties": {
        "name": "Cipari",
        "stop_status": "STOP",
        "notes": "",
        "schedule_ka67": "01:39:59",
        "schedule_ka68": "22:02:00",
        "schedule_ka69": "14:06:59",
        "schedule_ka70": "13:18:59"
      },
      "geometry": {
        "type": "Point",
        "coordinates": [
          108.70306,
          -7.458611
        ]
      }
    },
    {
      "type": "Feature",
      "properties": {
        "name": "Meluwung",
        "stop_status": "STOP",
        "notes": "",
        "schedule_ka67": "01:45:00",
        "schedule_ka68": "21:56:59",
        "schedule_ka69": "14:12:00",
        "schedule_ka70": "13:14:00"
      },
      "geometry": {
        "type": "Point",
        "coordinates": [
          108.64056,
          -7.43
        ]
      }
    },
    {
      "type": "Feature",
      "properties": {
        "name": "Langen",
        "stop_status": "STOP",
        "notes": "",
        "schedule_ka67": "01:50:59",
        "schedule_ka68": "21:51:59",
        "schedule_ka69": "14:17:59",
        "schedule_ka70": "13:09:00"
      },
      "geometry": {
        "type": "Point",
        "coordinates": [
          108.58583,
          -7.400278
        ]
      }
    },
    {
      "type": "Feature",
      "properties": {
        "name": "Banjar",
        "stop_status": "STOP",
        "notes": "",
        "schedule_ka67": "01:59:00",
        "schedule_ka68": "21:40:00",
        "schedule_ka69": "14:26:00",
        "schedule_ka70": "12:56:00"
      },
      "geometry": {
        "type": "Point",
        "coordinates": [
          108.53333,
          -7.366667
        ]
      }
    },
    {
      "type": "Feature",
      "properties": {
        "name": "Karangpucung",
        "stop_status": "STOP",
        "notes": "",
        "schedule_ka67": "02:10:00",
        "schedule_ka68": "21:33:59",
        "schedule_ka69": "14:37:00",
        "schedule_ka70": "12:49:59"
      },
      "geometry": {
        "type": "Point",
        "coordinates": [
          108.44833,
          -7.351667
        ]
      }
    },
    {
      "type": "Feature",
      "properties": {
        "name": "Bojong",
        "stop_status": "STOP",
        "notes": "X KA 274 (KA 274 X)",
        "schedule_ka67": "02:17:59",
        "schedule_ka68": "21:27:00",
        "schedule_ka69": "14:44:00",
        "schedule_ka70": "12:42:59"
      },
      "geometry": {
        "type": "Point",
        "coordinates": [
          108.40111,
          -7.339722
        ]
      }
    },
    {
      "type": "Feature",
      "properties": {
        "name": "Ciamis",
        "stop_status": "STOP",
        "notes": "",
        "schedule_ka67": "02:26:59",
        "schedule_ka68": "21:17:00",
        "schedule_ka69": "14:53:00",
        "schedule_ka70": "12:33:00"
      },
      "geometry": {
        "type": "Point",
        "coordinates": [
          108.35399,
          -7.325873
        ]
      }
    },
    {
      "type": "Feature",
      "properties": {
        "name": "Manonjaya",
        "stop_status": "STOP",
        "notes": "",
        "schedule_ka67": "02:42:59",
        "schedule_ka68": "21:06:00",
        "schedule_ka69": "15:09:00",
        "schedule_ka70": "12:22:00"
      },
      "geometry": {
        "type": "Point",
        "coordinates": [
          108.28778,
          -7.351111
        ]
      }
    },
    {
      "type": "Feature",
      "properties": {
        "name": "Awipari",
        "stop_status": "STOP",
        "notes": "X KA 288 (KA 288 X)",
        "schedule_ka67": "02:46:00",
        "schedule_ka68": "21:02:59",
        "schedule_ka69": "15:13:00",
        "schedule_ka70": "12:18:59"
      },
      "geometry": {
        "type": "Point",
        "coordinates": [
          108.25278,
          -7.339167
        ]
      }
    },
    {
      "type": "Feature",
      "properties": {
        "name": "Tasikmalaya",
        "stop_status": "STOP",
        "notes": "",
        "schedule_ka67": "02:53:00",
        "schedule_ka68": "20:53:59",
        "schedule_ka69": "15:18:59",
        "schedule_ka70": "12:09:00"
      },
      "geometry": {
        "type": "Point",
        "coordinates": [
          108.22091,
          -7.327466
        ]
      }
    },
    {
      "type": "Feature",
      "properties": {
        "name": "Indihiang",
        "stop_status": "STOP",
        "notes": "",
        "schedule_ka67": "03:02:00",
        "schedule_ka68": "20:48:59",
        "schedule_ka69": "15:27:00",
        "schedule_ka70": "12:04:00"
      },
      "geometry": {
        "type": "Point",
        "coordinates": [
          108.22972,
          -7.325833
        ]
      }
    },
    {
      "type": "Feature",
      "properties": {
        "name": "Rajapolah",
        "stop_status": "STOP",
        "notes": "",
        "schedule_ka67": "03:09:00",
        "schedule_ka68": "20:42:59",
        "schedule_ka69": "15:33:59",
        "schedule_ka70": "11:57:59"
      },
      "geometry": {
        "type": "Point",
        "coordinates": [
          108.21333,
          -7.323611
        ]
      }
    },
    {
      "type": "Feature",
      "properties": {
        "name": "Ciawi",
        "stop_status": "STOP",
        "notes": "",
        "schedule_ka67": "03:18:00",
        "schedule_ka68": "20:35:00",
        "schedule_ka69": "15:42:59",
        "schedule_ka70": "11:50:00"
      },
      "geometry": {
        "type": "Point",
        "coordinates": [
          108.18694,
          -7.316944
        ]
      }
    },
    {
      "type": "Feature",
      "properties": {
        "name": "Cirahayu",
        "stop_status": "STOP",
        "notes": "",
        "schedule_ka67": "03:27:00",
        "schedule_ka68": "20:26:59",
        "schedule_ka69": "15:51:00",
        "schedule_ka70": "11:42:59"
      },
      "geometry": {
        "type": "Point",
        "coordinates": [
          108.14778,
          -7.308056
        ]
      }
    },
    {
      "type": "Feature",
      "properties": {
        "name": "Cipeundeuy",
        "stop_status": "STOP",
        "notes": "",
        "schedule_ka67": "03:40:59",
        "schedule_ka68": "20:03:59",
        "schedule_ka69": "16:03:59",
        "schedule_ka70": "11:19:59"
      },
      "geometry": {
        "type": "Point",
        "coordinates": [
          108.103615,
          -7.3
        ]
      }
    },
    {
      "type": "Feature",
      "properties": {
        "name": "Bumiwaluya",
        "stop_status": "STOP",
        "notes": "",
        "schedule_ka67": "04:02:00",
        "schedule_ka68": "19:54:00",
        "schedule_ka69": "16:23:59",
        "schedule_ka70": "11:08:00"
      },
      "geometry": {
        "type": "Point",
        "coordinates": [
          108.060555,
          -7.275278
        ]
      }
    },
    {
      "type": "Feature",
      "properties": {
        "name": "Warungbandrek",
        "stop_status": "STOP",
        "notes": "",
        "schedule_ka67": "04:14:00",
        "schedule_ka68": "19:41:59",
        "schedule_ka69": "16:36:00",
        "schedule_ka70": "10:56:00"
      },
      "geometry": {
        "type": "Point",
        "coordinates": [
          108.01639,
          -7.245278
        ]
      }
    },
    {
      "type": "Feature",
      "properties": {
        "name": "Cibatu",
        "stop_status": "STOP",
        "notes": "",
        "schedule_ka67": "04:21:59",
        "schedule_ka68": "19:34:59",
        "schedule_ka69": "16:43:59",
        "schedule_ka70": "10:48:59"
      },
      "geometry": {
        "type": "Point",
        "coordinates": [
          107.98361,
          -7.221389
        ]
      }
    },
    {
      "type": "Feature",
      "properties": {
        "name": "Leuwigoong",
        "stop_status": "PASS",
        "notes": "",
        "schedule_ka67": "",
        "schedule_ka68": "",
        "schedule_ka69": "",
        "schedule_ka70": ""
      },
      "geometry": {
        "type": "Point",
        "coordinates": [
          107.93806,
          -7.180833
        ]
      }
    },
    {
      "type": "Feature",
      "properties": {
        "name": "Karangsari (Garut)",
        "stop_status": "STOP",
        "notes": "",
        "schedule_ka67": "04:30:00",
        "schedule_ka68": "19:27:00",
        "schedule_ka69": "16:52:00",
        "schedule_ka70": "10:41:00"
      },
      "geometry": {
        "type": "Point",
        "coordinates": [
          107.90417,
          -7.143056
        ]
      }
    },
    {
      "type": "Feature",
      "properties": {
        "name": "Leles",
        "stop_status": "STOP",
        "notes": "",
        "schedule_ka67": "04:36:00",
        "schedule_ka68": "19:16:59",
        "schedule_ka69": "16:57:59",
        "schedule_ka70": "10:32:59"
      },
      "geometry": {
        "type": "Point",
        "coordinates": [
          107.9025,
          -7.115278
        ]
      }
    },
    {
      "type": "Feature",
      "properties": {
        "name": "Lebakjero",
        "stop_status": "STOP",
        "notes": "",
        "schedule_ka67": "04:52:00",
        "schedule_ka68": "19:07:00",
        "schedule_ka69": "17:10:00",
        "schedule_ka70": "10:23:00"
      },
      "geometry": {
        "type": "Point",
        "coordinates": [
          107.941666,
          -7.0575
        ]
      }
    },
    {
      "type": "Feature",
      "properties": {
        "name": "Nagreg",
        "stop_status": "STOP",
        "notes": "",
        "schedule_ka67": "04:59:59",
        "schedule_ka68": "18:58:59",
        "schedule_ka69": "17:17:59",
        "schedule_ka70": "10:14:59"
      },
      "geometry": {
        "type": "Point",
        "coordinates": [
          107.88639,
          -7.019722
        ]
      }
    },
    {
      "type": "Feature",
      "properties": {
        "name": "Cicalengka",
        "stop_status": "STOP",
        "notes": "",
        "schedule_ka67": "05:12:59",
        "schedule_ka68": "18:45:59",
        "schedule_ka69": "17:30:00",
        "schedule_ka70": "10:02:00"
      },
      "geometry": {
        "type": "Point",
        "coordinates": [
          107.82917,
          -6.998056
        ]
      }
    },
    {
      "type": "Feature",
      "properties": {
        "name": "Haurpugur",
        "stop_status": "STOP",
        "notes": "",
        "schedule_ka67": "05:15:29",
        "schedule_ka68": "18:42:59",
        "schedule_ka69": "17:32:30",
        "schedule_ka70": "09:58:59"
      },
      "geometry": {
        "type": "Point",
        "coordinates": [
          107.781944,
          -6.987222
        ]
      }
    },
    {
      "type": "Feature",
      "properties": {
        "name": "Rancaekek",
        "stop_status": "STOP",
        "notes": "",
        "schedule_ka67": "05:21:00",
        "schedule_ka68": "18:38:59",
        "schedule_ka69": "17:39:00",
        "schedule_ka70": "09:54:59"
      },
      "geometry": {
        "type": "Point",
        "coordinates": [
          107.76056,
          -6.973611
        ]
      }
    },
    {
      "type": "Feature",
      "properties": {
        "name": "Cimekar",
        "stop_status": "PASS",
        "notes": "",
        "schedule_ka67": "",
        "schedule_ka68": "",
        "schedule_ka69": "",
        "schedule_ka70": ""
      },
      "geometry": {
        "type": "Point",
        "coordinates": [
          107.720276,
          -6.966389
        ]
      }
    },
    {
      "type": "Feature",
      "properties": {
        "name": "Gedebage",
        "stop_status": "STOP",
        "notes": "",
        "schedule_ka67": "05:26:00",
        "schedule_ka68": "18:33:00",
        "schedule_ka69": "17:44:59",
        "schedule_ka70": "09:49:00"
      },
      "geometry": {
        "type": "Point",
        "coordinates": [
          107.69861,
          -6.949722
        ]
      }
    },
    {
      "type": "Feature",
      "properties": {
        "name": "Kiaracondong",
        "stop_status": "STOP",
        "notes": "",
        "schedule_ka67": "05:33:00",
        "schedule_ka68": "18:18:59",
        "schedule_ka69": "17:51:59",
        "schedule_ka70": "09:38:59"
      },
      "geometry": {
        "type": "Point",
        "coordinates": [
          107.64142,
          -6.925393
        ]
      }
    },
    {
      "type": "Feature",
      "properties": {
        "name": "Cikudapateuh",
        "stop_status": "PASS",
        "notes": "",
        "schedule_ka67": "",
        "schedule_ka68": "",
        "schedule_ka69": "",
        "schedule_ka70": ""
      },
      "geometry": {
        "type": "Point",
        "coordinates": [
          107.623055,
          -6.923889
        ]
      }
    },
    {
      "type": "Feature",
      "properties": {
        "name": "Bandung",
        "stop_status": "STOP",
        "notes": "",
        "schedule_ka67": "05:44:59",
        "schedule_ka68": "18:09:59",
        "schedule_ka69": "18:04:59",
        "schedule_ka70": "09:29:59"
      },
      "geometry": {
        "type": "Point",
        "coordinates": [
          107.60241,
          -6.914744
        ]
      }
    }
  ]
}